Name,Country,Zip Code,City,Street Address,District,Phone Number 1,Phone Number 2,Website,Facebook,Instagram,YouTube,Phone Number 3,Phone Number 4,Phone Number 5,Phone Number 6,Phone Number 7
«ԷՍՏՈՄԵԴ» ԷՍԹԵՏԻԿ ԲԺՇԿՈՒԹՅԱՆ ԿԵՆՏՐՈՆ,Հայաստան, 0010, Երևան,"Պուշկինի փող., 36 շենք (Տերյան և Պուշկինի փողոցների խաչմերուկում)",(Կենտրոն վարչ. շրջան),37410500108,37495500108,http://www.estomed.am,https://www.facebook.com/estomed.am,https://www.instagram.com/estomed.am,https://www.youtube.com/channel/UC0tYGfwOp8wLsldP8wijNpA?disable_polymer=true,,,,,
«ԱՎԱՆՏԱ» ՆՈՐԱՐԱՐԱԿԱՆ ԲԺՇԿՈՒԹՅԱՆ ԿԵՆՏՐՈՆ,Հայաստան, 0025, Երևան,"Մխիթար Հերացու փող., 1/1 շենք",(Կենտրոն վարչ. շրջան),3741232323211,,http://www.avanta.am,,,,,,,,
«ԴԻԱԼԱԲ» ԲԺՇԿԱԿԱՆ ԿԵՆՏՐՈՆ ԵՎ ԿԼԻՆԻԿԱԿԱՆ ԱԽՏՈՐՈՇԻՉ ԼԱԲՈՐԱՏՈՐԻԱ,Հայաստան, 0051, Երևան,"Մամիկոնյանց փող., 41 շենք",(Արաբկիր վարչ. շրջան),,37410231329,http://www.dialab.am,https://www.facebook.com/dialabmedicalcenter,https://www.instagram.com/dialab_medical_center,,37410238080,37499231329,,,
«ՀԱՍՈՒ» ԻՄՊԼԱՆՏՈԼՈԳԻԱՅԻ ԵՎ ԷՍԹԵՏԻԿ ՍՏՈՄԱՏՈԼՈԳԻԱՅԻ ՄԱՍՆԱԳԻՏԱՑՎԱԾ ԿԼԻՆԻԿԱ,Հայաստան, 0070, Երևան,"Ռոստոմի փող., 29 շենք, 1-ին հարկ",(Կենտրոն վարչ. շրջան),37410558698,37410559725,http://www.hasuclinic.am,https://www.facebook.com/HASU-Implant-Dental-Clinic-288722114565715,,,37494415026,37499558698,,,
«ՎԱՆ» ՍՏՈՄԱՏՈԼՈԳԻԱԿԱՆ ԿԵՆՏՐՈՆ,Հայաստան, 0002, Երևան,"Թումանյան փող., 23 շենք",(Կենտրոն վարչ. շրջան),,37410538581,Spyur,https://www.facebook.com/VanDentalCentre,https://www.instagram.com/van_dental_cenntre,,,,,,
«3ԴԵՆՏ» ՍՏՈՄԱՏՈԼՈԳԻԱԿԱՆ ԿԵՆՏՐՈՆ,Հայաստան, 0002, Երևան,"Սարյան փող., 2 շենք, բն.16",(Կենտրոն վարչ. շրջան),37410544554,37496544550,http://www.3dent.am,,,,,,,,
«ԴԻԱՄԵԴ» ԲԺՇԿԱԿԱՆ ԿԵՆՏՐՈՆ,Հայաստան, 0092, Երևան,"Նոր Նորքի 7-րդ զանգված, Հունան Ավետիսյան փող., 84 շենք (հայորդաց տան հարևանությամբ)",(Նոր Նորք վարչ. շրջան),37410646160,37410669293,http://www.diamed.am,,,,,,,,
«ԿԱՄԱՐ» ՍՏՈՄԱՏՈԼՈԳԻԱԿԱՆ ԿԵՆՏՐՈՆ,Հայաստան, 0001, Երևան,"Սայաթ-Նովայի պող., 26 շենք, №8, 10",(Կենտրոն վարչ. շրջան),37410528444,37499411974,http://www.kamar.am,https://www.facebook.com/KamarDentalCenter,,,37410582514,37477411974,,,
«ՍՊԻՏԱԿ ԱՄՐՈՑ» ՍՏՈՄԱՏՈԼՈԳԻԱԿԱՆ ԲԺՇԿԱԿԱՆ ԿԼԻՆԻԿԱ,Հայաստան, 0014, Երևան,"Երազ բնակելի թաղամաս, Ադոնցի փող., 6/1 շենք, շինություն 326",(Արաբկիր վարչ. շրջան),37412336699,37455336609,http://www.whitecastle.am,,,,37493189838,,,,
«ԻՆՆՈՎԱ ԿԼԻՆԻԿ» ՆՈՐԱՐԱՐԱԿԱՆ ԲԺՇԿԱԿԱՆ ԿԵՆՏՐՈՆ,Հայաստան, 2207, Կոտայքի մարզ,"Երևանյան փող., 1/24 շենք",(Աբովյան համայնք),37460380038,37495380038,http://innova.am,https://www.facebook.com/InnovaClinicArmenia,https://www.instagram.com/innovaclinic,,37433380038,,,,
«ՅՈՒՆԻԴԵՆՏ» ՍՏՈՄԱՏՈԼՈԳԻԱԿԱՆ ԿԼԻՆԻԿԱ,Հայաստան, 0015, Երևան,"Սուրբ Գրիգոր Լուսավորչի փող., 7/1 շենք, 1-ին հարկ («Գլաձոր» համալսարանի շենքում)",(Կենտրոն վարչ. շրջան),37410545989,37433545989,Spyur,https://www.facebook.com/profile.php?id=100095627853372,https://www.instagram.com/unident_dental_clinic_/,,,,,,
«ՄՈԴԵՌՆ ԻՄՊԼԱՆՏ ՄԵԴԻՍԻՆ» ԲԺՇԿԱԿԱՆ ԿԵՆՏՐՈՆ,Հայաստան, 0015, Երևան,"Ձորափի փող., 40 շենք, 2-րդ հարկ, տարածքներ 28, 29",(Կենտրոն վարչ. շրջան),37410533838,37496151500,http://www.mim.am,https://www.facebook.com/ModernImplantMed,,,,,,,
«ԼԻԴԵՐ-ԷՖ» ՇՈՒՐՋՕՐՅԱ ՍՏՈՄԱՏՈԼՈԳԻԱԿԱՆ ԿԼԻՆԻԿԱՆԵՐԻ ՑԱՆՑ,Հայաստան, 0037, Երևան,"Կարապետ Ուլնեցու փող., 31/9 շենք",(Քանաքեռ-Զեյթուն վարչ. շրջան),37491414450,37410208414,Spyur,https://www.facebook.com/leader.f.dent,,,,,,,
"«ԶԱՔԱՐՅԱՆ ԴԵՆՏԱԼ» ԻՄՊԼԱՆՏՈԼՈԳԻԱՅԻ, ԿՈՍՄԵՏԻԿ ՍՏՈՄԱԼՈԳԻԱՅԻ ԵՎ ԿՈՍՄԵՏՈԼՈԳԻԱՅԻ ԿԵՆՏՐՈՆ (ԽՈՐԵՆ ԶԱՔԱՐՅԱՆ անհատ ձեռներեց)",Հայաստան, 0002, Երևան,"Մաշտոցի պող., 42 շենք",(Կենտրոն վարչ. շրջան),37410535979,37433535979,Spyur,,,,37444535979,37493362000,,,
«ՈՒԼՏՐԱԴԵՆՏ» ԱՏԱՄՆԱԲՈՒԺԱՐԱՆ («ՅՈՒԴԵՆՏ» սահմանափակ պատասխանատվությամբ ընկերություն),Հայաստան, 0002, Երևան,"Ամիրյան փող., 13 շենք, 1-ին հարկ",(Կենտրոն վարչ. շրջան),37410534063,37491534063,http://www.ultradent.am,https://www.facebook.com/UltraDentDentalClinic,https://www.instagram.com/ultradentclinic,,37455534063,,,,
«ԱՐՍԵԴԵՆՏ» ԱՏԱՄՆԱԲՈՒԺԱԿԱՆ ԿԼԻՆԻԿԱ,Հայաստան, 0025, Երևան,"Աբովյան փող., 54 շենք, 1-ին և 3-րդ հարկեր",(Կենտրոն վարչ. շրջան),37410561766,37410562173,http://www.arsedent.am,,,,,,,,
«ԴԻ-ՓԻ-ԷՅՉ ԴԵՆՏԱԼ» ԱՏԱՄՆԱԲՈՒԺԱԿԱՆ ԿԼԻՆԻԿԱ,Հայաստան, 0001, Երևան,"Խանջյան փող., 39 շենք, բն.3",(Կենտրոն վարչ. շրջան),37410520837,37499520837,Spyur,https://www.facebook.com/dphdentalcosmetology,https://www.instagram.com/dph_dental_clinic,,,,,,
«ՍՏՈՄԼԱՅՆ» ԺԱՄԱՆԱԿԱԿԻՑ ՍՏՈՄԱՏՈԼՈԳԻԱՅԻ ԵՎ ԷՍԹԵՏԻԿ ԲԺՇԿՈՒԹՅԱՆ ԿԵՆՏՐՈՆ,Հայաստան, 0025, Երևան,"Չարենցի փող., 5 շենք (կապի բաժանմունքի հարևանությամբ)",(Կենտրոն վարչ. շրջան),37455403232,37410600022,http://stomline.am,https://www.facebook.com/Stomline-dental-clinic-%D5%8D%D5%BF%D5%B8%D5%B4%D5%AC%D5%A1%D5%B5%D5%B6-%D5%BD%D5%BF%D5%B8%D5%B4%D5%A1%D5%BF%D5%B8%D5%AC%D5%B8%D5%A3%D5%AB%D5%A1%D5%AF%D5%A1%D5%B6-%D5%AF%D5%A5%D5%B6%D5%BF%D6%80%D5%B8%D5%B6-1647517268852077,https://www.instagram.com/stomlineclinic,,,,,,
«ԻՄՊԼԱՆՏՈՒՄ» ՍՏՈՄԱՏՈԼՈԳԻԱԿԱՆ ԿԼԻՆԻԿԱ,Հայաստան, 0026, Երևան,"Արշակունյաց պող., 46/2 շենք",(Շենգավիթ վարչ. շրջան),37410489700,37495489700,http://www.implantum.am,https://www.facebook.com/implantumdental,https://www.instagram.com/implantum_dental_clinic,,,,,,
«ԴԵՆՏԱԼԱՅՆ» ՍՏՈՄԱՏՈԼՈԳԻԱԿԱՆ ԿԼԻՆԻԿԱ,Հայաստան, 0018, Երևան,"Մովսես Խորենացու փող., 110/1 շենք",(Կենտրոն վարչ. շրջան),37410571133,37443571133,http://dentaline.am,,,,,,,,
«ԱԿՑԵՍ ԹՈՒ ԿԷՅՐ» բարեգործական հասարակական կազմակերպություն (ՀԿ),Հայաստան, 0014, Երևան,"Պարույր Սևակի փող., 5 շենք",(Քանաքեռ-Զեյթուն վարչ. շրջան),,37444550707,Spyur,https://www.facebook.com/accesstocarengo,https://www.instagram.com/access_to_care,,,,,,
«ԱՎԱՆ ԴԵՆՏ» ՍՏՈՄԱՏՈԼՈԳԻԱԿԱՆ ԿԼԻՆԻԿԱ,Հայաստան, Երևան,,,,37410625716,37494601001,Spyur,https://www.facebook.com/avandent.clinic,https://www.instagram.com/avandent_clinic/,,,,,,
«ՄԵԴԵՍԻ» ՍՏՈՄԱՏՈԼՈԳԻԱԿԱՆ ԿԼԻՆԻԿԱ,Հայաստան, 0054, Երևան,"Սասնա Ծռեր փող., 2/4 շենք",(Դավթաշեն վարչ. շրջան),37411370370,37455370370,http://www.medesy.am,https://www.facebook.com/MedesyStomatologyCenter,,,,,,,
«ԱՅԴԵՆՏԻՍՏ» ԱՏԱՄՆԱԲՈՒԺԱԿԱՆ ԿԼԻՆԻԿԱ,Հայաստան, 0009, Երևան,"Աբովյան փող., 33 շենք, 1-ին մուտք, 2-րդ հարկ, բն.4",(Կենտրոն վարչ. շրջան),,37410523553,Spyur,https://www.facebook.com/p/IDentist-Stom-Clinic-100054310249673/,https://www.instagram.com/explore/locations/1893058214239256/identist-stom-clinic/,,,,,,
«ՄԱՏԻԿՅԱՆ» ՍՏՈՄԱՏՈԼՈԳԻԱԿԱՆ ԿԼԻՆԻԿԱ սահմանափակ պատասխանատվությամբ ընկերություն (ՍՊԸ),Հայաստան, 0033, Երևան,"Արամ Խաչատրյան փող., 5 շենք",(Արաբկիր վարչ. շրջան),37410210122,,http://www.matikyan.am,,,,,,,,
«ԷԴԵՆՏ» ՍՏՈՄԱՏՈԼՈԳԻԱԿԱՆ ԿԼԻՆԻԿԱ,Հայաստան, 0064, Երևան,"Անդրանիկի փող., 110 շենք",(Մալաթիա-Սեբաստիա վարչ. շրջան),37410749295,37499749295,http://www.edent.am,https://www.facebook.com/Edent-152343508161258,https://www.instagram.com/dental_clinic_yerevan,,,,,,
«ՄԵԼԱԴԵՆՏ» ՍՏՈՄԱՏՈԼՈԳԻԱԿԱՆ ԿԼԻՆԻԿԱ,Հայաստան, 0012, Երևան,"Հրաչյա Քոչարի փող., 14/78 շենք",(Արաբկիր վարչ. շրջան),37410229192,37498485750,Spyur,https://www.facebook.com/meladent.am,https://www.instagram.com/meladent.am,,,,,,
«ՔԻՇՄԻՇՅԱՆ» ՍՏՈՄԱՏՈԼՈԳԻԱԿԱՆ ՍՏՈՒԴԻԱ,Հայաստան, 0037, Երևան,"Բաբայան փող., 3 շենք",(Արաբկիր վարչ. շրջան),37433390390,,http://www.kishmishian.dental,https://www.facebook.com/kishmishiandentalstudio,https://www.instagram.com/kishmishian.dentalstudio,,,,,,
«ԴԵՆՏԵՔՍ ԴԵՆՏԱԼ ԵՎ ԷՍԹԵՏԻԿ ԿԵՆՏՐՈՆ» («ԴԵՆՏԵՔՍ ԴԵՆՏԱԼ ՊԼՅՈՒՍ» սահմանափակ պատասխանատվությամբ ընկերություն),Հայաստան, 0001, Երևան,"Սայաթ-Նովայի պող., 21 շենք",(Կենտրոն վարչ. շրջան),37495546820,37491546820,Spyur,https://www.facebook.com/dentexdentalgrouparmenia,https://www.instagram.com/dentexdentalgroup,,37493546820,,,,
«ԷՅ ՋԻ ԷՅՋ ԴԵՆՏԱԼ ԼԱԲՈՐԱՏՈՐԻ» ՍՏՈՄԱՏՈԼՈԳԻԱԿԱՆ ԿԼԻՆԻԿԱ,Հայաստան, 0056, Երևան,"Նոր Նորքի 1-ին զանգված, Լվովյան փող., 108/2 շենք",(Նոր Նորք վարչ. շրջան),37499672266,37410672266,Spyur,https://www.facebook.com/agh.dental1,,,,,,,
«ՋԵՅ ԷՅՋ ԴԵՆՏ» ՍՏՈՄԱՏՈԼՈԳԻԱԿԱՆ ԿԼԻՆԻԿԱ,Հայաստան, 0065, Երևան,"Սեբաստիայի փող., 20 շենք",(Մալաթիա-Սեբաստիա վարչ. շրջան),37460700022,37410747279,http://www.jhdent.am,https://www.facebook.com/jhdent.am,,,37491361969,37477361959,,,
«ՕՐԹ ԸՆԴ ԱՐՏ» ԱՏԱՄՆԱԲՈՒԺԱԿԱՆ ԿԼԻՆԻԿԱ («ՕՐԹՈԼՅՈՒՔՍ» սահմանափակ պատասխանատվությամբ ընկերություն),Հայաստան, 0025, Երևան,"Կորյունի փող., 7 շենք, շինություն 25",(Կենտրոն վարչ. շրջան),37410541171,,http://www.ortandart.com,,,,,,,,
«ՇԻՐԲԱԿՅԱՆ» ՍՏՈՄԱՏՈԼՈԳԻԱԿԱՆ ԿԼԻՆԻԿԱ,Հայաստան, 0010, Երևան,"Վարդանանց փող., 11 շենք",(Կենտրոն վարչ. շրջան),37410520097,37491430466,http://www.facebok.com/ShirbakyanDentalClinic,,,,,,,,
«ԳԱԳԻԿ ԱՄՐՈՅԱՆ» ՍՏՈՄԱՏՈԼՈԳԻԱԿԱՆ ԿԼԻՆԻԿԱ,Հայաստան, 0099, Երևան,"Լենինգրադյան փող., 32 շենք",(Աջափնյակ վարչ. շրջան),37410396688,,http://www.doctors.am,,,,,,,,
«ՍՈՆԱՏՈ» ՍՏՈՄԱՏՈԼՈԳԻԱԿԱՆ ԿԼԻՆԻԿԱ,Հայաստան, 0051, Երևան,"Մարո Մարգարյան փող., 6/7 տուն (մուտքը՝ Սարալանջի փող. կողմից)",(Արաբկիր վարչ. շրջան),37499269126,37444269126,http://www.sonato.am,,,,,,,,
«ԷՄԻԴԵՆՏ» ՍՏՈՄԱՏՈԼՈԳԻԱԿԱՆ ԿԼԻՆԻԿԱ,Հայաստան, 0099, Երևան,"Աբելյան փող., 17/3 շենք",(Աջափնյակ վարչ. շրջան),37455319549,37491314923,Spyur,https://www.facebook.com/EmidentLLC,,,37493310150,,,,
«ԴՈԿՏՈՐ ԴԱՆԻԵԼՅԱՆ» ՇՈՒՐՋՕՐՅԱ ՍՏՈՄԱՏՈԼՈԳԻԱԿԱՆ ԿԼԻՆԻԿԱ (ՍԱՄՎԵԼ ԴԱՆԻԵԼՅԱՆ անհատ ձեռներեց),Հայաստան, 0025, Երևան,"Չարենցի փող., 10 շենք, բն.6ա",(Կենտրոն վարչ. շրջան),37410555066,37498455066,Spyur,https://www.facebook.com/DoctorDanielyan24hour,,,,,,,
«ՄԱՐՍՏՈՄ» ՍՏՈՄԱՏՈԼՈԳԻԱԿԱՆ ԿԵՆՏՐՈՆ,Հայաստան, 0002, Երևան,"Մաշտոցի պող., 37-22 շենք",(Կենտրոն վարչ. շրջան),37410534838,37477360012,http://www.marstom.am,https://www.facebook.com/Marstomplus,,,37499113355,,,,
«Ա ՍՏՈՄ» ԱՏԱՄՆԱԲՈՒԺԱԿԱՆ ԿԼԻՆԻԿԱ,Հայաստան, 0012, Երևան,"Կոմիտասի պող., 26 շենք",(Արաբկիր վարչ. շրջան),37410270908,37491554777,Spyur,https://www.facebook.com/stomcentr,https://www.instagram.com/astom.clinick,,37441554777,37491554111,,,
ԳՅՈՒՄՐՈՒ ԱՏԱՄՆԱԲՈՒԺԱԿԱՆ ԹԻՎ 2 ՊՈԼԻԿԼԻՆԻԿԱ,Հայաստան, Շիրակի մարզ, Գյումրի,"Գորկու փող., 42 շենք",,,37431255172,Spyur,,,,,,,,
ՀԱՄԱԼՍԱՐԱՆԱԿԱՆ ՍՏՈՄԱՏՈԼՈԳԻԱԿԱՆ ԹԻՎ 1 ՊՈԼԻԿԼԻՆԻԿԱ,Հայաստան, 0025, Երևան,"Աբովյան փող., 58 շենք",(Կենտրոն վարչ. շրջան),,37410301000392,Spyur,,,,,,,,
ՀԱՄԱԼՍԱՐԱՆԱԿԱՆ ՍՏՈՄԱՏՈԼՈԳԻԱԿԱՆ ԹԻՎ 2 ՊՈԼԻԿԼԻՆԻԿԱ,Հայաստան, 0014, Երևան,"Մամիկոնյանց փող., 30 շենք",(Արաբկիր վարչ. շրջան),37410301096,,Spyur,,,,,,,,
ՀԱՄԱԼՍԱՐԱՆԱԿԱՆ ՍՏՈՄԱՏՈԼՈԳԻԱԿԱՆ ԹԻՎ 3 ՊՈԼԻԿԼԻՆԻԿԱ,Հայաստան, 0025, Երևան,"Կորյունի փող., 2 շենք",(Կենտրոն վարչ. շրջան),37410301000359,,Spyur,,,,,,,,
«ՋԻ ԴԻ ՍԻ» ՍՏՈՄԱՏՈԼՈԳԻԱՅԻ ԵՎ ԻՄՊԼԱՆՏՈԼՈԳԻԱՅԻ ՄԱՍՆԱԳԻՏԱՑՎԱԾ ԿԵՆՏՐՈՆ,Հայաստան, 0001, Երևան,"Աբովյան փող., 34ա/57/1 շենք",(Կենտրոն վարչ. շրջան),,37410521442,http://www.gdcclinic.com,https://www.facebook.com/stomatologarmenia,,,37496521442,,,,
«ԱՐՏԱՇԱՏԻ ՍՏՈՄԱՏՈԼՈԳ» փակ բաժնետիրական ընկերություն (ՓԲԸ),Հայաստան, Արարատի մարզ, Արտաշատ,"Օգոստոսի 23-ի փող., 42 շենք",(Արտաշատ համայնք),37423520010,,Spyur,,,,,,,,
«ԻՆՏԵԼԵԿՏ» ԱՏԱՄՆԱԲՈՒԺԱՐԱՆ,Հայաստան, 0001, Երևան,"Սայաթ-Նովայի պող., 26 շենք",(Կենտրոն վարչ. շրջան),37410583924,37410526576,Spyur,,,,,,,,
«ՆՈՎՈ-ՍՏՈՄ» ՍՏՈՄԱՏՈԼՈԳԻԱԿԱՆ ԿԼԻՆԻԿԱ սահմանափակ պատասխանատվությամբ ընկերություն (ՍՊԸ),Հայաստան, 0015, Երևան,"Եզնիկ Կողբացու փող., 3 շենք, բն.1ա",(Կենտրոն վարչ. շրջան),37410534476,,Spyur,,,,,,,,
«ԱՐԵԳԱԿ» ՍՏՈՄԱՏՈԼՈԳԻԱՅԻ ԵՎ ԻՄՊԼԱՆՏՈԼՈԳԻԱՅԻ ԿԵՆՏՐՈՆ,Հայաստան, 0012, Երևան,"Վահրամ Փափազյան փող., 16 շենք",(Արաբկիր վարչ. շրջան),37410278464,37495317207,http://www.aregak.com,https://www.facebook.com/aregakstomatologicalcenter,,,,,,,
«ԳՐԱՆԴ ԴԵՆՏ» ԻՄՊԼԱՆՏՈԼՈԳԻԱՅԻ ԵՎ ԷՍԹԵՏԻԿ ՍՏՈՄԱՏՈԼՈԳԻԱՅԻ ՄԱՍՆԱԳԻՏԱՑՎԱԾ ԿԼԻՆԻԿԱ,Հայաստան, 0070, Երևան,"Ռոստոմի փող., 29 շենք, տարածք 200",(Կենտրոն վարչ. շրջան),37498511111,37491465246,http://www.GrandDent.am,https://www.facebook.com/granddent,,,37491202934,,,,
«ՄԱՍՏԵՐ ԴԵՆՏ» ԱՏԱՄՆԱԲՈՒԺԱԿԱՆ ԿԵՆՏՐՈՆ,Հայաստան, 0012, Երևան,"Կոմիտասի պող., 19 շենք",(Արաբկիր վարչ. շրջան),37410227656,37410227646,Spyur,,,,37491415116,,,,
«ՆՈՐԱԴԵՆՏ» ԱՏԱՄՆԱԲՈՒԺԱԿԱՆ ԿԵՆՏՐՈՆ փակ բաժնետիրական ընկերություն (ՓԲԸ),Հայաստան, 0020, Երևան,"Էրեբունու փող., 23 շենք, շինություն 73",(Էրեբունի վարչ. շրջան),,37410451141,Spyur,https://www.facebook.com/Noradent.stom.centr/,,,,,,,
«ԴԵԼՅՈՒՔՍ» ԱՏԱՄՆԱԲՈՒԺԱԿԱՆ ԿԵՆՏՐՈՆ,Հայաստան, 0025, Երևան,"Կորյունի փող., 7/1 շենք, բն.7",(Կենտրոն վարչ. շրջան),37410543582,37477543582,Spyur,,,,,,,,
«ՕՄԵԳԱ» ՍՏՈՄԱՏՈԼՈԳԻԱԿԱՆ ԿԼԻՆԻԿԱ սահմանափակ պատասխանատվությամբ ընկերություն (ՍՊԸ),Հայաստան, 0056, Երևան,"Նոր Նորքի 1-ին զանգված, Նանսենի փող., 4 շենք",(Նոր Նորք վարչ. շրջան),37410648700,,Spyur,,,,,,,,
«ՖԱՆ-ՍՏՈՄ» ՍՏՈՄԱՏՈԼՈԳԻԱԿԱՆ ԿԼԻՆԻԿԱ,Հայաստան, 0012, Երևան,"Վաղարշ Վաղարշյան փող., 24 շենք",(Արաբկիր վարչ. շրջան),37410270381,,Spyur,,,,,,,,
«ՋՈՐՋ ԴԵՆՏԱԼ ԳՐՈՒՊ» ԱՏԱՄՆԱԲՈՒԺԱԿԱՆ ԿԼԻՆԻԿԱ սահմանափակ պատասխանատվությամբ ընկերություն (ՍՊԸ),Հայաստան, 0012, Երևան,"Արամ Խաչատրյան փող., 20 շենք",(Արաբկիր վարչ. շրջան),37410277905,,http://www.gdentalg.am,,,,,,,,
«ԱՐԶ» ՍՏՈՄԱՏՈԼՈԳԻԱԿԱՆ ԿԵՆՏՐՈՆ սահմանափակ պատասխանատվությամբ ընկերություն (ՍՊԸ),Հայաստան, 0070, Երևան,"Երվանդ Քոչարի փող., 9 շենք",(Կենտրոն վարչ. շրջան),37410550231,,Spyur,,,,,,,,
«ՄԱԵՍՏՐՈ» ԱՏԱՄՆԱԲՈՒԺԱԿԱՆ ԿԼԻՆԻԿԱ,Հայաստան, 0002, Երևան,"Ամիրյան փող., 24 շենք, բն.15 (Թատրոնի և կինոյի ինստիտուտի մոտ)",(Կենտրոն վարչ. շրջան),37410530995,,Spyur,,,,,,,,
«ԴԱԲԼՅՈՒ ԷՄ ԴԵՆՏԱԼ» ԱՏԱՄՆԱԲՈՒԺԱՐԱՆ,Հայաստան, 0009, Երևան,"Կորյունի փող., 19ա շենք, 1-ին մուտք, 1-ին հարկ",(Կենտրոն վարչ. շրջան),37493499125,,Spyur,https://www.facebook.com/wmdentalarmenia,,,,,,,
«ՎԻՏԱ ԴԵՆՏ» ՍՏՈՄԱՏՈԼՈԳԻԱԿԱՆ ԿԼԻՆԻԿԱ,Հայաստան, Երևան,,,,,37410540787,Spyur,,,,,,,,
«ԳՈՅԴԵՆՏ» ՍՏՈՄԱՏՈԼՈԳԻԱԿԱՆ ԿԵՆՏՐՈՆ սահմանափակ պատասխանատվությամբ ընկերություն (ՍՊԸ),Հայաստան, 0056, Երևան,"Նոր Նորքի 1-ին զանգված, Լվովյան փող., 5 շենք",(Նոր Նորք վարչ. շրջան),,37410644100,Spyur,,,,,,,,
«ԱՐԳՈԴԵՆՏ» ՍՏՈՄԱՏՈԼՈԳԻԱԿԱՆ ԿԵՆՏՐՈՆ սահմանափակ պատասխանատվությամբ ընկերություն (ՍՊԸ),Հայաստան, 0002, Երևան,"Մաշտոցի պող., 20 շենք, բն.44",(Կենտրոն վարչ. շրջան),37410534148,,Spyur,https://www.facebook.com/ArgodentDentalClinic,,,,,,,
«ՎԱՆՄԵԴ» ԲԺՇԿԱՍՏՈՄԱՏՈԼՈԳԻԱԿԱՆ ԿԵՆՏՐՈՆ,Հայաստան, Լոռու մարզ, Վանաձոր,"Զաքարյան փող., 29 շենք",(Վանաձոր համայնք),,37432244328,Spyur,https://www.facebook.com/vanmedmsc,,,37432244606,,,,
«ԶԵԹ ԸՆԴ ԷԼ» ՍՏՈՄԱՏՈԼՈԳԻԱԿԱՆ ԿԼԻՆԻԿԱ,Հայաստան, 0048, Երևան,"Նորաշեն (16-րդ թաղամաս), 44 շենք",(Աջափնյակ վարչ. շրջան),37410357177,37477357177,Spyur,https://www.facebook.com/zldent.am/,,,37455277555,,,,
«ԷԴԻԿ-ՍՈՒՍԱՆՆԱ» ՍՏՈՄԱՏՈԼՈԳԻԱԿԱՆ ԿԼԻՆԻԿԱ,Հայաստան, 0033, Երևան,"Ավետ Ավետիսյան փող., 80/3 շենք (Վիկտոր Համբարձումյան փող. 14 շենքի դիմաց)",(Արաբկիր վարչ. շրջան),37410223349,37495223349,Spyur,https://www.facebook.com/pages/Es-Dental-Clinic/361397703905796,,,,,,,
«ՏԵԼԻԱ-ՄԵԴ» փակ բաժնետիրական ընկերություն (ՓԲԸ),Հայաստան, 0054, Երևան,"Դավթաշեն, 2-րդ թաղամաս, 2 շենք",(Դավթաշեն վարչ. շրջան),,37410369270,http://www.telia-med.com,,,,,,,,
«ԷՄԻԼԻԱ» ՍՏՈՄԱՏՈԼՈԳԻԱԿԱՆ ԿԼԻՆԻԿԱ,Հայաստան, 0009, Երևան,"Աղայան փող., 11բ շենք",(Կենտրոն վարչ. շրջան),37410546044,,Spyur,,,,,,,,
«ԲԵԼԼԱ ԴԵՆՏ» ՍՏՈՄԱՏՈԼՈԳԻԱԿԱՆ ԿԵՆՏՐՈՆ,Հայաստան, 0015, Երևան,"Պարոնյան փող., 28ա շենք",(Կենտրոն վարչ. շրջան),37411536981,37411538555,Spyur,,,,,,,,
«ՄԱԿՏՈՒՍ ԴԵՆՏ»,Հայաստան, 0004, Երևան,"Րաֆֆու փող., 19 շենք",(Մալաթիա-Սեբաստիա վարչ. շրջան),,37410740542,http://www.maktus.am/,https://www.facebook.com/maktus,,,,,,,
«ՊՐԵԶԻԴԵՆՏ» ՍՏՈՄԱՏՈԼՈԳԻԱԿԱՆ ԿԼԻՆԻԿԱ սահմանափակ պատասխանատվությամբ ընկերություն (ՍՊԸ),Հայաստան, 0028, Երևան,"Օրբելի եղբայրների փող., 6 շենք",(Արաբկիր վարչ. շրջան),37410270467,,Spyur,,,,,,,,
«ԷԼՎԱ» ԷՍԹԵՏԻԿ ՍՏՈՄԱՏՈԼՈԳԻԱՅԻ ԵՎ ԻՄՊԼԱՆՏՈԼՈԳԻԱՅԻ ԿԵՆՏՐՈՆ,Հայաստան, 0041, Երևան,"Էրեբունու փող., 7 շենք",(Էրեբունի վարչ. շրջան),,37410430343,http://www.elvadent.am,,,,,,,,
«ՖԵՄԻԴԱ ԴԵՆՏ» ԱՏԱՄՆԱԲՈՒԺԱՐԱՆ սահմանափակ պատասխանատվությամբ ընկերություն (ՍՊԸ),Հայաստան, 0070, Երևան,"Վարդանանց փող., 26 շենք",(Կենտրոն վարչ. շրջան),37493344667,,Facebook,https://www.facebook.com/femidadent,,,,,,,
«ՄԻԼԻԱԼ» սահմանափակ պատասխանատվությամբ ընկերություն (ՍՊԸ),Հայաստան, 0001, Երևան,"Աբովյան փող., 28 շենք, բն.1",(Կենտրոն վարչ. շրջան),37410569490,,Spyur,,,,,,,,
«ԱՆԴՐԱԴԵՆՏ» ԱՏԱՄՆԱԲՈՒԺԱՐԱՆ,Հայաստան, Երևան,,,,37410356016,37493343992,Spyur,https://www.facebook.com/Andradent-Dental-Clinic-347946172007343,,,,,,,
«ՍԹԱՐ ԴԵՆՏ» ԱՏԱՄՆԱԲՈՒԺԱՐԱՆ,Հայաստան, 0079, Երևան,"Նոր Նորքի 5-րդ զանգված, Արտեմ Միկոյան փող., 17/1 շենք",(Նոր Նորք վարչ. շրջան),37499669200,37410669200,Spyur,,,,,,,,
«ՊՐՈՖԻ-ՄԵԴ» ԱՏԱՄՆԱԲՈՒԺԱՐԱՆ,Հայաստան, 0033, Երևան,"Հակոբ Հակոբյան փող., 4 շենք",(Արաբկիր վարչ. շրջան),37491402615,37491422792,Spyur,,,,,,,,
«ՄԵԴ ԱԿՌԱ ԼՅՈՒՔՍ» ԱՏԱՄՆԱԲՈՒԺԱՐԱՆ սահմանափակ պատասխանատվությամբ ընկերություն (ՍՊԸ),Հայաստան, Երևան,,,,37410561707,,Spyur,,,,,,,,
«Կ ԸՆԴ Ա ՍՏՈՒԴԻՈ» ԻՄՊԼԱՆՏՈԼՈԳԻԱՅԻ ԵՎ ՍՏՈՄԱՏՈԼՈԳԻԱՅԻ ԿԼԻՆԻԿԱ,Հայաստան, 0002, Երևան,"Արամի փող., 54 շենք",(Կենտրոն վարչ. շրջան),37499563282,,Spyur,,,,,,,,
«ԱՌՈՂՋ ԺՊԻՏ» ԱՏԱՄՆԱԲՈՒԺԱԿԱՆ ԿԼԻՆԻԿԱ,Հայաստան, 0069, Երևան,"Ռուբինյանց փող., 11 շենք",(Քանաքեռ-Զեյթուն վարչ. շրջան),37410246858,,Spyur,,,,,,,,
«ՖՐԱՆՍ ՄԵԴ» ՍՏՈՄԱՏՈԼՈԳԻԱԿԱՆ ԿԼԻՆԻԿԱ,Հայաստան, 0025, Երևան,"Մխիթար Հերացու փող., 2ա շենք",(Կենտրոն վարչ. շրջան),37411559609,,Spyur,https://www.facebook.com/francemedyerevan,,,,,,,
«ԱՐՓԻՆԵ-ՄԵԴ» ՍՏՈՄԱՏՈԼՈԳԻԱԿԱՆ ԿԼԻՆԻԿԱ սահմանափակ պատասխանատվությամբ ընկերություն (ՍՊԸ),Հայաստան, 0056, Երևան,"Նոր Նորքի 1-ին զանգված, Նանսենի փող., 1/1 շենք",(Նոր Նորք վարչ. շրջան),37410630377,,Spyur,https://www.facebook.com/ArpineMed,,,,,,,
ԳԱԳԻԿ ՇԱՀԲԱԶՅԱՆ անհատ ձեռներեց (ԱՁ),Հայաստան, 0048, Երևան,"Նորաշեն (16-րդ թաղամաս), Բեկնազարյան փող., 44 շենք, 1-ին հարկ (շենքերի 1-ին շղթա)",(Աջափնյակ վարչ. շրջան),37410357177,37477357177,Spyur,,,,,,,,
ԼԵՎՈՆ ԲՈԽՉԱԼՅԱՆ անհատ ձեռներեց (ԱՁ),Հայաստան, 0012, Երևան,"Կոմիտասի պող., 32 շենք",(Արաբկիր վարչ. շրջան),37477206307,,Spyur,,,,,,,,
«ԱԼՖԱՍՏՈՄ» ԱՏԱՄՆԱԲՈՒԺԱՐԱՆ,Հայաստան, Երևան,,,,37410279227,37455279227,Spyur,https://www.facebook.com/AlfaStom,,,,,,,
«ԿԴ» ՍՏՈՄԱՏՈԼՈԳԻԱԿԱՆ ԿԼԻՆԻԿԱ,Հայաստան, 0033, Երևան,"Հակոբ Հակոբյան փող., 1 շենք",(Արաբկիր վարչ. շրջան),37410321002,,Spyur,,,,,,,,
«ԴԿԱ-ԴԵՆՏ» («ԴԴ») ՍՏՈՄԱՏՈԼՈԳԻԱԿԱՆ ԿԵՆՏՐՈՆ սահմանափակ պատասխանատվությամբ ընկերություն (ՍՊԸ),Հայաստան, 0033, Երևան,"Հրաչյա Քոչարի փող., 10 շենք",(Արաբկիր վարչ. շրջան),37410274955,37493195100,Spyur,,,,,,,,
«ՎԱՆՅԱՆ ԴԵՆՏ»,Հայաստան, Երևան,,,,37410544333,,Spyur,https://www.facebook.com/vanyandent,,,,,,,
«ՄԻՐԶՈՅԱՆ ԿԼԻՆԻԿ»,Հայաստան, 0014, Երևան,"Նիկողայոս Տիգրանյան փող., 13 շենք, տարածք 16",(Արաբկիր վարչ. շրջան),37491605005,37499776055,Spyur,https://www.facebook.com/profile.php?id=100063540821862,,,,,,,
«ՍՄԱՐՏԴԵՆՏ» սահմանափակ պատասխանատվությամբ ընկերություն (ՍՊԸ),Հայաստան, 0001, Երևան,"Սայաթ-Նովայի պող., 26 շենք, №8",(Կենտրոն վարչ. շրջան),37410528444,,http://www.kamar.am,,,,,,,,
«ՌԱՖԱՅԵԼ ՄՆԱՑԱԿԱՆՅԱՆ» սահմանափակ պատասխանատվությամբ ընկերություն (ՍՊԸ),Հայաստան, 0054, Երևան,"Դավթաշեն, 1-ին թաղամաս, 10 շենք",(Դավթաշեն վարչ. շրջան),37491654003,37410364003,Spyur,,,,,,,,
«32 ՄԱՐԳԱՐԻՏ» ՍՏՈՄԱՏՈԼՈԳԻԱԿԱՆ ԿԼԻՆԻԿԱ,Հայաստան, Երևան,,,,37410450125,37493275923,Spyur,https://www.facebook.com/32Margarit,,,37491471396,,,,
«ՎԱ ՆԵ ԴԵՆՏ - ԱՎԱԳՅԱՆ ԿԼԻՆԻԿ»,Հայաստան, Երևան,,,,37455424546,,Spyur,,,,,,,,
ԳՐԻԳՈՐ ԱՎԵՏԻՔՅԱՆ անհատ ձեռներեց (ԱՁ),Հայաստան, 0041, Երևան,"Էրեբունու փող., 7 շենք",(Էրեբունի վարչ. շրջան),37410430343,,Spyur,,,,,,,,
«ՍԱՐ-Օ-ՅԱՆ» ՍՏՈՄԱՏՈԼՈԳԻԱԿԱՆ ԿԼԻՆԻԿԱ,Հայաստան, 0010, Երևան,"Պուշկինի փող., 15ա շենք",(Կենտրոն վարչ. շրջան),37410521021,37499002133,http://www.saroyan.am,https://www.facebook.com/Saroyan-Dental-Clinic-359972734645144,,,,,,,
«ԼԻԼԻԹ» ՍՏՈՄԱՏՈԼՈԳԻԱԿԱՆ ԿԵՆՏՐՈՆ,Հայաստան, 0012, Երևան,"Արամ Խաչատրյան փող., 12/26 շենք",(Արաբկիր վարչ. շրջան),37410275384,,Spyur,,,,,,,,
«ԻՆԴԻՎԻԴՈՒՈՒՄ» ՍՏՈՄԱՏՈԼԱԳԻԱԿԱՆ ԿԼԻՆԻԿԱ,Հայաստան, 0026, Երևան,"Գարեգին Նժդեհի փող., 44 շենք",(Շենգավիթ վարչ. շրջան),37410580549,37496448421,http://www.individuumdental.com,https://www.facebook.com/Individuumdentalclinic,,,,,,,
«ՌԵՅՆՈ ԴԵՆՏ» սահմանափակ պատասխանատվությամբ ընկերություն (ՍՊԸ),Հայաստան, 0054, Երևան,"Դավթաշեն, 1-ին թաղամաս, 41 շենք",(Դավթաշեն վարչ. շրջան),37493257670,37493665112,Spyur,,,,,,,,
«ԱՆԳԵԼ ԴԵՆՏ» ՍՏՈՄԱՏՈԼՈԳԻԱԿԱՆ ԿԵՆՏՐՈՆ,Հայաստան, Երևան,,,,37410391607,37493197686,Spyur,,,,,,,,
ԱՇՈՏ ՊՈՂՈՍՅԱՆ անհատ ձեռներեց (ԱՁ),Հայաստան, 0064, Երևան,"Անդրանիկի փող., 110 շենք",(Մալաթիա-Սեբաստիա վարչ. շրջան),37410749295,,Spyur,,,,,,,,
«ԴԵՆՏԱԼ ԱՐՏ» ԱՏԱՄՆԱԲՈՒԺԱՐԱՆ,Հայաստան, 0018, Երևան,"Տիգրան Մեծի պող., 43 շենք",(Կենտրոն վարչ. շրջան),37410562044,37493335099,http://www.dentalart.am,,,,37499335099,,,,
«ԿԱՐԵՆ ԴԵՆՏ» սահմանափակ պատասխանատվությամբ ընկերություն (ՍՊԸ),Հայաստան, 0033, Երևան,"Հակոբ Հակոբյան փող., 1 շենք",(Արաբկիր վարչ. շրջան),37410321002,,Spyur,,,,,,,,
«ԻՆԴԵՆԹ» ԱՏԱՄՆԱԲՈՒԺԱՐԱՆ,Հայաստան, 0012, Երևան,"Կոմիտասի պող., 30 շենք",(Արաբկիր վարչ. շրջան),37496018800,,Spyur,,,,,,,,
«ՄԵԴԵՄ» ՍՏՈՄԱՏՈԼՈԳԻԱԿԱՆ ԿԵՆՏՐՈՆ,Հայաստան, 0069, Երևան,"Ռուբինյանց փող., 20 շենք, տարածք 2",(Քանաքեռ-Զեյթուն վարչ. շրջան),37493333401,,Spyur,https://www.facebook.com/Medemdentalcenter,,,,,,,
«ՖԵԼԴԱՎ» սահմանափակ պատասխանատվությամբ ընկերություն (ՍՊԸ),Հայաստան, 0026, Երևան,"Արշակունյաց պող., 46/2 շենք",(Շենգավիթ վարչ. շրջան),37410489700,37495489700,Spyur,,,,,,,,
«ՌԱՄԶԵՍ» ՍՏՈՄԱՏՈԼՈԳԻԱԿԱՆ ԿԼԻՆԻԿԱ սահմանափակ պատասխանատվությամբ ընկերություն (ՍՊԸ),Հայաստան, 0014, Երևան,"Կոմիտասի պող., 59/6 շենք",(Արաբկիր վարչ. շրջան),37491737301,37441737301,Spyur,https://www.facebook.com/Ramzes-Dental-clinic-136106293534416/,,,,,,,
«ԵՐԵՎԱՆ ՎԻՊ ԴԵՆՏ»,Հայաստան, 0015, Երևան,"Զաքյան փող., 8 շենք",(Կենտրոն վարչ. շրջան),37410539099,37444550080,Spyur,https://www.facebook.com/yerevanvipdental/,,,37496777113,,,,
«ՅՈՒՐԱ ԵՎ ԳԱԳԻԿ» սահմանափակ պատասխանատվությամբ ընկերություն (ՍՊԸ),Հայաստան, 0076, Երևան,"Նոր Նորքի 4-րդ զանգված, Գյուլիքեխվյան փող., 1/3 շենք",(Նոր Նորք վարչ. շրջան),37410672733,,Spyur,,,,,,,,
ԱՐԹՈՒՐ ՓԱՓԱԶՅԱՆ անհատ ձեռներեց (ԱՁ),Հայաստան, 0051, Երևան,"Մարո Մարգարյան փող., 6/7 տուն (մուտքը՝ Սարալանջի փող. կողմից)",(Արաբկիր վարչ. շրջան),37499269126,37444269126,Spyur,,,,,,,,
«ԲԻԱՆԿՈ» ՍՏՈՄԱՏՈԼՈԳԻԱԿԱՆ ԿԼԻՆԻԿԱ,Հայաստան, 0051, Երևան,"Կոմիտասի պող., 49/12 շենք (Ստանդարտների ազգային ինստիտուտի հարևանությամբ)",(Արաբկիր վարչ. շրջան),37410237000,,Spyur,https://www.facebook.com/biancodentalclinic,,,,,,,
«ԷՄ ԱՅ ԷՍ» ԻՄՊԼԱՆՏՈԼՈԳԻԱՅԻ ԿԵՆՏՐՈՆ,Հայաստան, 0012, Երևան,"Վահրամ Փափազյան փող., 16 շենք",(Արաբկիր վարչ. շրջան),37410210158,37496210158,Spyur,https://www.facebook.com/MISImplantsArmenia/,,,,,,,
«ՌԱԴԻԱԼ» ՍՏՈՄԱՏՈԼՈԳԻԱԿԱՆ ԿԵՆՏՐՈՆ,Հայաստան, 0014, Երևան,"Ադոնցի փող., 1/1 շենք",(Արաբկիր վարչ. շրջան),37410235079,37491338545,Spyur,,,,,,,,
«ՈՒԱՅԹ ԴԵՆՏ» ԱՏԱՄՆԱԲՈՒԺԱԿԱՆ ԿԵՆՏՐՈՆ,Հայաստան, 0033, Երևան,"Հակոբ Հակոբյան փող., 8 շենք",(Արաբկիր վարչ. շրջան),37494948403,,Spyur,,,,,,,,
«ԴԻՄԱՔՍ ՌԵՅ» սահմանափակ պատասխանատվությամբ ընկերություն (ՍՊԸ),Հայաստան, 0002, Երևան,"Եզնիկ Կողբացու փող., 42/206 շենք",(Կենտրոն վարչ. շրջան),37410500325,37496229325,http://www.dimax-ray.com,https://www.facebook.com/dimaxrayyerevan,,,,,,,
«ՄԻՔԴԱՎ» սահմանափակ պատասխանատվությամբ ընկերություն (ՍՊԸ),Հայաստան, 0092, Երևան,"Նոր Նորքի 7-րդ զանգված, Հունան Ավետիսյան փող., 84 շենք",(Նոր Նորք վարչ. շրջան),37410669293,,Spyur,,,,,,,,
«ԼՅՈՒՄԻ ԴԵՆՏ» (ՄԻՇԱ ԱՆԴՐԵԱՍՅԱՆ անհատ ձեռներեց),Հայաստան, Երևան,,,,37410623533,37499623533,Spyur,,,,,,,,
«ԿԱՐԵՆ ՍԱՐԴԱՐՅԱՆ» ԱՏԱՄՆԱԲՈՒԺԱԿԱՆ ԿԵՆՏՐՈՆ,Հայաստան, 0086, Երևան,"Շիրակի փող., 68-1ա շենք",(Շենգավիթ վարչ. շրջան),37410424077,37491407885,Spyur,,,,37498424077,37496424077,37495424077,,
«ԼՅՈՒՔՍ ՄԵԴ» ԱՏԱՄՆԱԲՈՒԺԱՐԱՆ («ՀԱՄԼԵՏ-ՆԱՐԻՆԵ» սահմանափակ պատասխանատվությամբ ընկերություն),Հայաստան, 0078, Երևան,"Բաշինջաղյան փող., 196 շենք",(Աջափնյակ վարչ. շրջան),37410341483,37455422905,Spyur,,,,,,,,
«ԱՐՏ ԿԼԱՍԻԿ ԴԵՆՏ» ՍՏՈՄԱՏՈԼՈԳԻԱԿԱՆ ԿԵՆՏՐՈՆ,Հայաստան, 0096, Երևան,"Մոլդովական փող., 3 շենք",(Նոր Նորք վարչ. շրջան),37410611199,,Spyur,https://www.facebook.com/art.classicdent,,,,,,,
«ԱԼՄԱԴԵՆՏ» ՍՏՈՄԱՏՈԼՈԳԻԱԿԱՆ ԿԼԻՆԻԿԱ,Հայաստան, 0033, Երևան,"Գյուլբենկյան փող., 30/3 շենք, տարածք 130",(Արաբկիր վարչ. շրջան),37410260300,37496260300,Spyur,,,,,,,,
«ՆԱՐԵԿ» ԱՏԱՄՆԱԲՈՒԺԱՐԱՆ,Հայաստան, 0025, Երևան,"Նալբանդյան փող., 47/16 շենք",(Կենտրոն վարչ. շրջան),37410544528,37491334771,Spyur,,,,,,,,
«ԿԼԱՆՍԵ» ԱՏԱՄՆԱԲՈՒԺԱԿԱՆ ԿԼԻՆԻԿԱ,Հայաստան, 0056, Երևան,"Նոր Նորքի 1-ին զանգված, Նանսենի փող., 7 շենք",(Նոր Նորք վարչ. շրջան),37410644799,37477422222,Spyur,https://www.facebook.com/KLANSE,,,37455422222,37491422222,,,
«ՋԻ ԷՍ» ՍՏՈՄԱՏՈԼՈԳԻԱԿԱՆ ԿԼԻՆԻԿԱ,Հայաստան, 0014, Երևան,"Դավիթ Անհաղթի փող., 5 շենք",(Քանաքեռ-Զեյթուն վարչ. շրջան),37477744054,,Spyur,,,,,,,,
«ԴՈՎԼԱԹՅԱՆ ԴԵՆՏ»,Հայաստան, 0002, Երևան,"Մաշտոցի պող., 35 շենք",(Կենտրոն վարչ. շրջան),37410530010,,Spyur,,,,,,,,
ԱՐՏԱԿ ԲԱՂԴԱՍԱՐՅԱՆ անհատ ձեռներեց (ԱՁ),Հայաստան, 0018, Երևան,"Տիգրան Մեծի պող., 43 շենք",(Կենտրոն վարչ. շրջան),37410562044,,Spyur,,,,,,,,
«ԵԳԱՆՅԱՆ» ՍՏՈՄԱՏՈԼՈԳԻԱԿԱՆ ԿԼԻՆԻԿԱ,Հայաստան, 0060, Երևան,"Ավան, Նարեկացու թաղամաս, 39/5 շենք",(Ավան վարչ. շրջան),37433384430,37491384430,Spyur,https://www.facebook.com/yeganyandent,,,,,,,
«ԱՈՒՐԱ ԴԵՆՏ» ԱՏԱՄՆԱԲՈՒԺԱՐԱՆ,Հայաստան, 0033, Երևան,"Մարշալ Բաղրամյան պող., 68 շենք",(Արաբկիր վարչ. շրջան),37477211213,,Spyur,https://www.facebook.com/AuraDentalClinics/,,,,,,,
«ՊՐՈԳՐԵՍ ԴԵՆՏ» ՍՏՈՄԱՏՈԼՈԳԻԱԿԱՆ ԿԼԻՆԻԿԱ,Հայաստան, Երևան,,,,37410349729,37491349729,Spyur,,,,,,,,
«ՍՏՈՄ ԱՍ» ՍՏՈՄԱՏՈԼՈԳԻԱԿԱՆ ԿԼԻՆԻԿԱ («ՏԻԳՐԱՆ ՍԵՐԳՈՅԱՆ» սահմանափակ պատասխանատվությամբ ընկերություն),Հայաստան, Երևան,,,,37410575356,37491478274,Spyur,,,,37491379317,,,,
«ՎԱՐՈՍՅԱՆ» ՍՏՈՄԱՏՈԼՈԳԻԱԿԱՆ ԿԼԻՆԻԿԱ,Հայաստան, Լոռու մարզ, Վանաձոր,"Վարդանանց փող., 36 շենք, բն.3",(Վանաձոր համայնք),37432225445,37494520403,Spyur,,,,,,,,
«ՀՈՎՍԵՓՅԱՆ ՍՏՈՄ»,Հայաստան, 0909, Արմավիրի մարզ,"Երևանյան փող., 40ա շենք",(Արմավիր համայնք),37493076272,,Spyur,https://www.facebook.com/hovsepyanstom,,,,,,,
«ՍՄԱՅԼ ԴԵՆՏ»,Հայաստան, 0201, Արագածոտնի մարզ,"Ներսես Աշտարակեցու փող., 86 շենք",(Աշտարակ համայնք),37493652152,,Spyur,,,,,,,,
«ԴԵՆՏԱԼ ԿԼԻՆԻԿ ԱԳԱԲԱԲՅԱՆ»,Հայաստան, Լոռու մարզ, Վանաձոր,"Վարդանանց փող., 23-174 շենք",(Վանաձոր համայնք),37432222636,37491748826,Spyur,,,,,,,,
«Վ.Ա.Գ. ԴԵՆՏ»,Հայաստան, Արմավիրի մարզ, Արմավիր,"Ջիվանու փող., 15 շենք, տարածք 49/5",(Արմավիր համայնք),37460460999,37423728999,Spyur,https://www.facebook.com/profile.php?id=100033575544497,,,,,,,
«ԱԶԱ-ԴԵՆՏ» ՎԱՂԱՐՇԱՊԱՏԻ ՍՏՈՄԱՏՈԼՈԳԻԱԿԱՆ ԿԼԻՆԻԿԱ,Հայաստան, Արմավիրի մարզ, Էջմիածին,"Մովսես Խորենացու փող., 20ա շենք",(Վաղարշապատ համայնք),37477330208,37477255208,Spyur,https://www.facebook.com/profile.php?id=100064691930153,,,,,,,
«ԱՄԻ-ԴԵՆՏ»,Հայաստան, Լոռու մարզ, Վանաձոր,"Երևանյան խճուղի, 103ա շենք",(Վանաձոր համայնք),37432253727,37493344408,Spyur,https://www.facebook.com/amident.amiryan,,,,,,,
«ԱԼ-ԴԵՆՏԱ» ՍՏՈՄԱՏՈԼՈԳԻԱԿԱՆ ԿԼԻՆԻԿԱ,Հայաստան, 0033, Երևան,"Մարշալ Բաղրամյան պող., 68 շենք (մուտքը՝ Ավետ Ավետիսյան փող. կողմից)",(Արաբկիր վարչ. շրջան),37410276543,37493375396,Spyur,https://www.facebook.com/Al-Denta-%D4%B1%D5%AC-%D4%B4%D5%A5%D5%B6%D5%BF%D5%A1-260685893969478,,,,,,,
«ԱՐԹՈՒՐ ԴԵՆՏ»,Հայաստան, Երևան,,,,37410358477,37494404558,Spyur,,,,37496404558,,,,
«ՕՐԱՆԺ ԴԵՆՏ»,Հայաստան, Երևան,,,,37460481868,37410381868,http://orangedent.am/,https://www.facebook.com/orangedent.am,,,,,,,
«ՎԻՏԱԼ ՄԵԴ» ԷՍԹԵՏԻԿ ՍՏՈՄԱՏՈԼՈԳԻԱՅԻ ԿԵՆՏՐՈՆ,Հայաստան, 0069, Երևան,"Ռուբինյանց փող., 2/2 շենք",(Քանաքեռ-Զեյթուն վարչ. շրջան),37498909003,37455965550,Spyur,https://www.facebook.com/VitalMedYerevan,,,,,,,
«ՀԵՓՓԻ ՍՄԱՅԼ» ԱՏԱՄՆԱԲՈՒԺԱՐԱՆ,Հայաստան, 0010, Երևան,"Պուշկինի փող., 21/3 շենք",(Կենտրոն վարչ. շրջան),37410569949,,Spyur,https://www.facebook.com/happysmile2008,,,,,,,
«ՎԻԿԱ ԴԵՆՏ»,Հայաստան, Շիրակի մարզ, Արթիկ,"Բաղրամյան փող., 6/8 շենք",(Արթիկ համայնք),37477778077,,Spyur,,,,,,,,
«ՎԻԿՏՈՐԻԱ ԴԵՆՏ»,Հայաստան, 0026, Երևան,"Գարեգին Նժդեհի փող., 58 շենք",(Շենգավիթ վարչ. շրջան),37494219319,,Spyur,,,,,,,,
«ԷՐՈԴԵՆՏ» ՍՏՈՄԱՏՈԼՈԳԻԱԿԱՆ ԿԼԻՆԻԿԱ,Հայաստան, 0005, Երևան,"Տիգրան Մեծի պող., 48/3 շենք",(Էրեբունի վարչ. շրջան),37494023626,37499223626,http://www.erodent.am,https://www.facebook.com/erodent,,,,,,,
«ԷԼՄԻՕՆ ԴԵՆՏ» ՍՏՈՄԱՏՈԼՈԳԻԱԿԱՆ ԿԼԻՆԻԿԱ,Հայաստան, 0056, Երևան,"Նոր Նորքի 1-ին զանգված, Նանսենի փող., 4 շենք",(Նոր Նորք վարչ. շրջան),37410646555,37494428384,Spyur,https://www.facebook.com/ElmionDent,,,37491428384,37455428384,,,
«ԱՐՏ ԷՍՏԵՏԻԿ ԴԵՆՏԻՈՒՄ»,Հայաստան, Կոտայքի մարզ, Աբովյան,"Հանրապետության պող., 15ա շենք",(Աբովյան համայնք),37422269090,37460469090,Spyur,,,,37496469090,,,,
«ԷԼ ԷՍ ՍՏՈՄԱՏՈԼՈՋԻ»,Հայաստան, 0003, Երևան,"Ներքին Չարբախ, 2-րդ փողոց, 3 տուն",(Շենգավիթ վարչ. շրջան),37410428204,37494935336,Spyur,,,,,,,,
«ՆՅՈՒ ՀՈՓ» ԱՏԱՄՆԱԲՈՒԺԱՐԱՆ,Հայաստան, 0015, Երևան,"Մաշտոցի պող., 6 շենք",(Կենտրոն վարչ. շրջան),37410525359,37493917111,Spyur,,,,37433525359,,,,
«ՀՈՎԴԱ» ՍՏՈՄԱՏՈԼՈԳԻԱԿԱՆ ԿԼԻՆԻԿԱ,Հայաստան, Լոռու մարզ, Վանաձոր,"Իսահակյան փող., 5ա շենք",(Վանաձոր համայնք),37494789078,,Spyur,https://www.facebook.com/hovda.stomklinika,,,,,,,
«ՌՎ ԴԵՆՏ» ՍՏՈՄԱՏՈԼՈԳԻԱԿԱՆ ԿԼԻՆԻԿԱ,Հայաստան, Երևան,,,,37460643066,37498306666,http://www.rvdent.am,https://www.facebook.com/RVDentDentalClinic,,,,,,,
«ԴԵՆՏԱԼՅՈՒՔՍ» ՍՏՈՄԱՏՈԼՈԳԻԱԿԱՆ ԿԼԻՆԻԿԱ,Հայաստան, Շիրակի մարզ, Գյումրի,"Ղանդիլյան փող., 84/25 շենք",,37494054025,37496054025,Spyur,https://www.facebook.com/dentalux.stomatologia,,,,,,,
«ԲԻԱՆԿՈԴԵՆՏ» սահմանափակ պատասխանատվությամբ ընկերություն (ՍՊԸ),Հայաստան, 0051, Երևան,"Կոմիտասի պող., 49/12 շենք (Ստանդարտների ազգային ինստիտուտի հարևանությամբ)",(Արաբկիր վարչ. շրջան),37410237000,37455237000,http://www.biancodent.am,,,,,,,,
«ԲՈՅԱԴՋՅԱՆ ԴԵՆՏԱԼ ԿԼԻՆԻԿ»,Հայաստան, 0010, Երևան,"Աբովյան փող., 2/5 շենք, 3-րդ հարկ",(Կենտրոն վարչ. շրջան),37460443737,37498373737,http://www.dentforever.com,https://www.facebook.com/BoyadjianDentalPolyclinic,,,37498396677,,,,
«ՖՈՐՏԻ» ՍՏՈՄԱՏՈԼՈԳԻԱԿԱՆ ԿԵՆՏՐՈՆ սահմանափակ պատասխանատվությամբ ընկերություն (ՍՊԸ),Հայաստան, 0006, Երևան,"Գարեգին Նժդեհի փող., 19ա շենք, շինություն 106",(Շենգավիթ վարչ. շրջան),37410442326,37499121249,Spyur,https://www.facebook.com/Fortidental,,,,,,,
«ՕՊՏԻՄՈՒՄ ԴԵՆՏ» սահմանափակ պատասխանատվությամբ ընկերություն (ՍՊԸ),Հայաստան, 2001, Լոռու մարզ,"Տիգրան Մեծի պող., 29/19 շենք",(Վանաձոր համայնք),37498323115,37432223115,http://www.optimumdent.info,,,,37493225856,,,,
ՄԻՔԱՅԵԼ ՇԻՐԲԱԿՅԱՆ անհատ ձեռնարկատեր (ԱՁ),Հայաստան, 0010, Երևան,"Վարդանանց փող., 11 շենք",(Կենտրոն վարչ. շրջան),37410520097,,Spyur,,,,,,,,
«ՄԵԴԱԼՅԱՆՍ» ԱՏԱՄՆԱԲՈՒԺԱՐԱՆ,Հայաստան, 0033, Երևան,"Հակոբ Հակոբյան փող., 3/2 շենք",(Արաբկիր վարչ. շրջան),37411210122,,Spyur,,,,,,,,
«ԷՅ-ԷՅՉ» ՍՏՈՄԱՏՈԼՈԳԻԱԿԱՆ ԿԼԻՆԻԿԱ,Հայաստան, Երևան,,,,37498905520,,Spyur,,,,,,,,
«ԿԱՍԿԱԴ ԴԵՆՏԱԼ ԿԼԻՆԻԿ» սահմանափակ պատասխանատվությամբ ընկերություն (ՍՊԸ),Հայաստան, 0009, Երևան,"Թամանյան փող., 3 շենք, տարածք 64",(Կենտրոն վարչ. շրջան),37410568413,,Spyur,,,,,,,,
«ԴԵՆՏԱ ՎԻՏԱ»,Հայաստան, 0010, Երևան,"Ագաթանգեղոսի փող., 29 շենք",(Կենտրոն վարչ. շրջան),37410526237,37494526237,Spyur,,,,,,,,
«ԴԵՆՏԱԼ ՀԱՈՒՍ»,Հայաստան, 0078, Երևան,"Ֆուչիկի փող., 19 շենք",(Աջափնյակ վարչ. շրջան),37410340230,37494007181,Spyur,https://www.facebook.com/DentistYerevan,,,,,,,
«ԿՈՒՐԱ ԴԵՆՏ»,Հայաստան, Գեղարքունիքի մարզ, Սևան,"Դեմիրճյան փող., 3 շենք",(Սևան համայնք),37498446061,37426121121,Spyur,https://www.facebook.com/CuraDent/timeline,,,,,,,
«ՕՆԴԵՆՏԱԼ» ՍՏՈՄԱՏՈԼՈԳԻԱԿԱՆ ԿԵՆՏՐՈՆ,Հայաստան, 0006, Երևան,"Գարեգին Նժդեհի փող., 3 շենք, բն.18",(Շենգավիթ վարչ. շրջան),37410420681,,Spyur,https://www.facebook.com/profile.php?id=100043253667129,,,,,,,
«ՀԱՐՄՈՆԻԱ» ՍՏՈՄԱՏՈԼՈԳԻԱԿԱՆ ԿԵՆՏՐՈՆ,Հայաստան, 0096, Երևան,"Նոր Նորքի 2-րդ զանգված, Թոթովենցի փող., 1 շենք",(Նոր Նորք վարչ. շրջան),37410628555,,Spyur,https://www.facebook.com/harmony.am,,,,,,,
«ՎԻՎԱ ԴԵՆՏ» ՍՏՈՄԱՏՈԼՈԳԻԱԿԱՆ ԿԼԻՆԻԿԱ,Հայաստան, Սյունիքի մարզ, Կապան,"Արամ Մանուկյան փող., 1/1-3 շենք",(Կապան համայնք),37495900200,,Spyur,,,,,,,,
«ԶԵՓՅՈՒՌ» ՍՏՈՄԱՏՈԼՈԳԻԱԿԱՆ ԿԵՆՏՐՈՆ,Հայաստան, Սյունիքի մարզ, Կապան,"Շահումյան փող., 37ա/1 շենք",(Կապան համայնք),,37494984528,Spyur,,,,,,,,
«ՄԻՐԶՈՅԱՆ ԴԵՆՏԱԼ ԿԼԻՆԻԿ»,Հայաստան, Արարատի մարզ, Մասիս,"1-ին փողոց, 55/1 շենք",(Մասիս համայնք),,37477642445,Spyur,https://www.facebook.com/Mirzoyan-Dental-clinic-%D5%94%D5%A1%D5%B2%D5%A1%D6%84-%D5%84%D5%A1%D5%BD%D5%AB%D5%BD-2270315429697685/,,,,,,,
«ԿԱՆԻՆԱ ԿԼԻՆԻԿ» ԱՏԱՄՆԱԲՈՒԺԱՐԱՆ,Հայաստան, 0025, Երևան,"Կորյունի փող., 5/24 շենք",(Կենտրոն վարչ. շրջան),37491477464,,Spyur,,,,,,,,
«ՕՐԻՈՆ» ՍՏՈՄԱՏՈԼՈԳԻԱԿԱՆ ԿԼԻՆԻԿԱ,Հայաստան, Արմավիրի մարզ, Էջմիածին,"Չարենցի փող., 11/1 շենք",(Վաղարշապատ համայնք),37499228011,37493228211,Spyur,https://www.facebook.com/%D5%95%D5%90%D4%BB%D5%88%D5%86-%D5%8D%D5%BF%D5%B8%D5%B4%D5%A1%D5%BF%D5%B8%D5%AC%D5%B8%D5%A3%D5%AB%D5%A1%D5%AF%D5%A1%D5%B6-%D4%BF%D5%AC%D5%AB%D5%B6%D5%AB%D5%AF%D5%A1-ORION-528606853969388,,,,,,,
«ԱՆԻ ԴԵՆՏ» ԱՏԱՄՆԱԲՈՒԺԱՐԱՆ,Հայաստան, 0033, Երևան,"Գյուլբենկյան փող., 37 շենք",(Արաբկիր վարչ. շրջան),37410229030,37441220722,Spyur,https://www.facebook.com/anidentalclinic/,,,37491483954,37494483954,,,
ԷՄՄԱ ԱՀԱՐՈՆՅԱՆ անհատ ձեռներեց (ԱՁ),Հայաստան, 0052, Երևան,"Ռուբինյանց փող., 47/1 շենք",(Քանաքեռ-Զեյթուն վարչ. շրջան),37410240536,37495240536,Spyur,,,,,,,,
«ՍԹԱՐ ՍՄԱՅԼ»,Հայաստան, 0009, Երևան,"Իսահակյան փող., 36/2 շենք",(Կենտրոն վարչ. շրջան),37495960660,37444960660,Spyur,https://www.facebook.com/SmileDent.am?fref=ts,,,,,,,
«ԱՏԼԱՆՏԻՍ ԷՌ ԴԵՆՏԱ» ԱՏԱՄՆԱԲՈՒԺԱՐԱՆ,Հայաստան, 0002, Երևան,"Եզնիկ Կողբացու փող., 49 շենք",(Կենտրոն վարչ. շրջան),37410532629,37494205555,Spyur,,,,,,,,
«ՄԱԿՐՈԴԵՆՏ» ԳԵՐՄԱՆԱԿԱՆ ԻՄՊԼԱՆՏՈԼՈԳԻԱՅԻ ԿԵՆՏՐՈՆ,Հայաստան, 0001, Երևան,"Հանրապետության փող., 82բ շենք (Խանջյան փող. խաչմերուկում)",(Կենտրոն վարչ. շրջան),37494777726,,Spyur,,,,,,,,
«ԼՅՈՒՔՍ» ՍՏՈՄԱՏՈԼՈԳԻԱԿԱՆ ԿԵՆՏՐՈՆ («ԱՌԱՔԵԼ ԹՈՐՈՍՅԱՆ» սահմանափակ պատասխանատվությամբ ընկերություն),Հայաստան, 0026, Երևան,"Արշակունյաց պող., 32 շենք, տարածք 133",(Շենգավիթ վարչ. շրջան),37410444613,37493208844,Spyur,,,,,,,,
«ՍՏՈՄԻՈՆ ՕՐԹՈԴՈՆՏԻԿՍ» ՍՏՈՄԱՏՈԼՈԳԻԱԿԱՆ ԿԼԻՆԻԿԱ սահմանափակ պատասխանատվությամբ ընկերություն (ՍՊԸ),Հայաստան, 0025, Երևան,"Կորյունի փող., 5 շենք, 1-ին հարկ",(Կենտրոն վարչ. շրջան),37491405679,,Spyur,,,,,,,,
ԷՐԻԿ ԲԵԳԼԱՐՅԱՆ անհատ ձեռներեց (ԱՁ),Հայաստան, 0032, Երևան,"Միքայելյան փող., 1/3 շենք",(Մալաթիա-Սեբաստիա վարչ. շրջան),37498808881,,Spyur,,,,,,,,
«ԷԼ ԴԵՆՏ» ՍՏՈՄԱՏՈԼՈԳԻԱԿԱՆ ԿԼԻՆԻԿԱ,Հայաստան, 0070, Երևան,"Վարդանանց փող., 107/1 շենք",(Կենտրոն վարչ. շրջան),37410578557,37477228723,Spyur,,,,37494228723,,,,
«ԱՐՄԱՆԻ ԴԵՆՏ ԿԼԻՆԻԿ»,Հայաստան, 0006, Երևան,"Մանթաշյան փող., 26/16 շենք",(Շենգավիթ վարչ. շրջան),37499650550,,Spyur,,,,,,,,
«ՎՐԵԺ ԴԱՐԿՈՍՅԱՆ - ԱՏԱՄՆԱԲՈՒՅԺ»,Հայաստան, 0039, Երևան,"Չեխովի փող., 14 շենք",(Շենգավիթ վարչ. շրջան),37493316677,,Spyur,https://www.facebook.com/Dr.Vrej.D,,,,,,,
«ՅՈՒՆԻ ԴԵՆՏ»,Հայաստան, Շիրակի մարզ, Գյումրի,"Գորկու փող., 74/4 շենք",,37493064296,,Spyur,,,,,,,,
«ԱԿՌԱ» ԷՍԹԵՏԻԿ ՍՏՈՄԱՏՈԼՈԳԻԱԿԱՆ ԿԵՆՏՐՈՆ,Հայաստան, 0002, Երևան,"Սարյան փող., 28/4 շենք",(Կենտրոն վարչ. շրջան),37491838000,37496878555,Spyur,https://www.facebook.com/akrastom/,,,,,,,
«ԴԱՅՄՈՆԴ ԴԵՆՏ» ՍՏՈՄԱՏՈԼՈԳԻԱԿԱՆ ԿԵՆՏՐՈՆ,Հայաստան, Շիրակի մարզ, Գյումրի,"Մովսես Խորենացու փող., 26-41 շենք",,37491696919,,Spyur,https://www.facebook.com/diamonddentgyumri/?fref=ts,,,,,,,
«ԴՈՆԻՄԱՆՈ»,Հայաստան, 0010, Երևան,"Վարդանանց փող., 18/1 շենք",(Կենտրոն վարչ. շրջան),37498130130,,http://www.implants.am,https://www.facebook.com/implants.am/?fref=ts,,,,,,,
«ԴԱՅՄՈՆԴ ԴԵՆՏ» ՍՏՈՄԱՏՈԼՈԳԻԱԿԱՆ ԿԵՆՏՐՈՆ,Հայաստան, 0056, Երևան,"Նոր Նորքի 1-ին զանգված, Նանսենի փող., 4 շենք, բն.45/1",(Նոր Նորք վարչ. շրջան),37410673767,37494638478,Spyur,,,,37491673766,,,,
ԷԴՈՒԱՐԴ ԿԱՏՎԱԼՅԱՆ անհատ ձեռներեց (ԱՁ),Հայաստան, Երևան,,,,37410455543,37493551910,Spyur,,,,,,,,
«ՇԱՄՍ» ՍՏՈՄԱՏՈԼՈԳԻԱԿԱՆ ԿԼԻՆԻԿԱ,Հայաստան, 0037, Երևան,"Բաբայան փող., 12 շենք",(Արաբկիր վարչ. շրջան),37410255588,37494090802,Spyur,https://www.facebook.com/ShamsDental,,,37498255588,37499255588,,,
«ԱՐՏ ԴԵՆՏ» (ԱՐԹՈՒՐ ԳԻՆՈՍՅԱՆ անհատ ձեռներեց),Հայաստան, 0075, Երևան,"Ազատամարտիկների պող., 38/3 շենք",(Էրեբունի վարչ. շրջան),37410433255,37441325522,Spyur,,,,,,,,
«ԷԼՄԱ» ՍՏՈՄԱՏՈԼՈԳԻԱԿԱՆ ԿԵՆՏՐՈՆ,Հայաստան, 0052, Երևան,"Ռուբինյանց փող., 47/1 շենք",(Քանաքեռ-Զեյթուն վարչ. շրջան),37410240536,37495240536,Spyur,,,,,,,,
«Լ.Ա.Ռ.Ա. ՍՏՈՄ»,Հայաստան, 0038, Երևան,"Լենինգրադյան փող., 4/13 շենք",(Աջափնյակ վարչ. շրջան),37493214582,37410381224,Spyur,https://www.facebook.com/larastom,,,,,,,
«ՏԱՏ ԴԵՆՏ»,Հայաստան, 0028, Երևան,"Կիևյան փող., 18/2 շենք",(Արաբկիր վարչ. շրջան),37410262254,,Spyur,,,,,,,,
«ԱՐՏԻԴԵՆՏ» ՍՏՈՄԱՏՈԼՈԳԻԱԿԱՆ ԿԼԻՆԻԿԱ,Հայաստան, 0001, Երևան,"Ավագ Պետրոսյան փող., 13 շենք",(Կենտրոն վարչ. շրջան),37491474169,,Spyur,,,,,,,,
ՎԼԱԴԻՄԻՐ ԴԱՎԴՅԱՆ անհատ ձեռներեց (ԱՁ),Հայաստան, 0096, Երևան,"Թոթովենցի փող., 13 շենք, 1-ին մուտք",(Նոր Նորք վարչ. շրջան),37498571218,,Spyur,,,,,,,,
ՍԱՄՎԵԼ ՄՈՍԻԿՅԱՆ անհատ ձեռներեց (ԱՁ),Հայաստան, 0096, Երևան,"Նոր Նորքի 2-րդ զանգված, Մոլդովական փող., 29/6 շենք, շինություն 1",(Նոր Նորք վարչ. շրջան),37491482051,37477760043,Spyur,,,,,,,,
«ԽԱՉՈՒՄՅԱՆ» ԱՏԱՄՆԱԲՈՒԺԱՐԱՆ սահմանափակ պատասխանատվությամբ ընկերություն (ՍՊԸ),Հայաստան, 0076, Երևան,"Բակունցի փող. 1-ին նրբ., 3/2 շենք",(Նոր Նորք վարչ. շրջան),37444471111,,https://khachumyan.com,,,,,,,,
«ՋԻ ԷՅ» ԱՏԱՄՆԱԲՈՒԺԱՐԱՆ,Հայաստան, 0014, Երևան,"Ազատության պող., 25/20 շենք",(Արաբկիր վարչ. շրջան),37410234158,37499770303,Spyur,https://www.facebook.com/geras.alikhanyan6,,,,,,,
«ԱԲՐԱՀԱՄՅԱՆ» ՍՏՈՄԱՏՈԼՈԳԻԱԿԱՆ ԿԼԻՆԻԿԱ,Հայաստան, 0054, Երևան,"Դավթաշեն, 2-րդ թաղամաս, 39 շենք, տարածք 37",(Դավթաշեն վարչ. շրջան),37498040546,37494891289,Spyur,https://www.facebook.com/abrahamyandental,,,,,,,
«ՎԱՐԴ ԴԵՆՏ» ՍՏՈՄԱՏՈԼՈԳԻԱԿԱՆ ԿԼԻՆԻԿԱ,Հայաստան, 0078, Երևան,"Բաշինջաղյան փող. 2-րդ նրբ., 93 շինություն",(Աջափնյակ վարչ. շրջան),37494661550,,Spyur,https://www.facebook.com/VardDent/,,,,,,,
«Ե. ՄԱԼԽԱՍՅԱՆ» ԿԼԻՆԻԿԱ,Հայաստան, 3126, Շիրակի մարզ,"58-րդ թաղամաս, Պարույր Սևակի փող., 7ա շենք",,37494904924,,Spyur,,,,,,,,
«ՀՈՎԱ ԴԵՆՏ»,Հայաստան, Շիրակի մարզ, Գյումրի,"Անի թաղամաս, 9-րդ փողոց, 5ա շենք, բն.4",,37493211118,37491211118,Spyur,,,,,,,,
«ՎԱՐՁԵԼՅԱՆ» ՍՏՈՄԱՏՈԼՈԳԻԱԿԱՆ ԿԵՆՏՐՈՆ,Հայաստան, Շիրակի մարզ, Գյումրի,"Մովսես Խորենացու փող., 8 շենք",,37498213010,37494673377,Spyur,https://www.facebook.com/vardzelyandentalclinic,,,,,,,
«ԷՎԱ ԴԵՆՏ»,Հայաստան, Լոռու մարզ, Վանաձոր,"Աղայան փող., 82 շենք",(Վանաձոր համայնք),37494488800,37432228800,Spyur,https://www.facebook.com/evadent82/,,,,,,,
«ՎԱՆ ԲԻԶՆԵՍ-ԿԵՆՏՐՈՆ» փակ բաժնետիրական ընկերություն (ՓԲԸ),Հայաստան, 0002, Երևան,"Թումանյան փող., 23 շենք",(Կենտրոն վարչ. շրջան),37410538581,,Spyur,,,,,,,,
«ՀԱՄԱՍՓՅՈՒՌ ԴԵՆՏ» ՇՈՒՐՋՕՐՅԱ ՍՏՈՄԱՏՈԼՈԳԻԱԿԱՆ ԵՎ ԿՈՍՄԵՏՈԼՈԳԻԱԿԱՆ ԿԼԻՆԻԿԱ,Հայաստան, 0015, Երևան,"Մովսես Խորենացու փող., 12 շենք, 1-ին հարկ",(Կենտրոն վարչ. շրջան),37455336591,37491336591,https://hamaspyur-dent.business.site,https://www.facebook.com/N1Dent,,,,,,,
«ՔԵՇԻՇՅԱՆ» ԷՍԹԵՏԻԿ ԱՏԱՄՆԱԲՈՒԺՈՒԹՅԱՆ ԿԼԻՆԻԿԱ սահմանափակ պատասխանատվությամբ ընկերություն (ՍՊԸ),Հայաստան, 0010, Երևան,"Աբովյան փող., 2/5 շենք",(Կենտրոն վարչ. շրջան),37411550501,,Spyur,https://www.facebook.com/keshishiandentalclinic,,,,,,,
«ՅՈՒՐԻ ԿԻՐԱԿՈՍՅԱՆ» ԱՏԱՄՆԱԲՈՒԺԱԿԱՆ ԿԼԻՆԻԿԱ,Հայաստան, 0028, Երևան,"Կիևյան փող., 2 շենք",(Արաբկիր վարչ. շրջան),37410273568,,Spyur,,,,,,,,
«ՍՏՈՄ ՑԵՆՏՐԱԼ»,Հայաստան, 2021, Լոռու մարզ,"Տիգրան Մեծի պող., 38/47 շենք",(Վանաձոր համայնք),37432225500,37491427159,Spyur,https://www.facebook.com/kentrondent/,,,,,,,
«ՎԱՆՄԱՔՍ ՌԵՅ» սահմանափակ պատասխանատվությամբ ընկերություն (ՍՊԸ),Հայաստան, 2002, Լոռու մարզ,"Վարդանանց փող., 122-1/1 շենք",(Վանաձոր համայնք),37499075575,37432275575,http://www.dimax-ray.com,https://www.facebook.com/Vanmaxray/,,,,,,,
«ԵՐԵՎԱՆ ԴԵՆՏԱԼ ԿԼԻՆԻԿ»,Հայաստան, 0002, Երևան,"Մաշտոցի պող., 40 շենք",(Կենտրոն վարչ. շրջան),37411470770,,Spyur,https://www.facebook.com/Yerevan-Dental-Clinic-328468344390203,,,,,,,
«ՆՈՐ ԺՊԻՏ» ԱՏԱՄՆԱԲՈՒԺԱՐԱՆ,Հայաստան, 0070, Երևան,"Երվանդ Քոչարի փող., 24/3 շենք",(Կենտրոն վարչ. շրջան),37477790995,37499799995,Spyur,https://www.facebook.com/norjpitdental/,,,,,,,
«ՄԻՀՐԱՆ ԿԱՐԱՊԵՏՅԱՆ - ԱՏԱՄՆԱԲՈՒՅԺ»,Հայաստան, 0002, Երևան,"Մաշտոցի պող., 40 շենք («Երևան Դենտալ Կլինիկի» տարածքում)",(Կենտրոն վարչ. շրջան),37477484342,,Spyur,https://www.facebook.com/%D4%B1%D5%BF%D5%A1%D5%B4%D5%B6%D5%A1%D5%A2%D5%B8%D6%82%D5%B5%D5%AA-%D5%84%D5%AB%D5%B0%D6%80%D5%A1%D5%B6-%D4%BF%D5%A1%D6%80%D5%A1%D5%BA%D5%A5%D5%BF%D5%B5%D5%A1%D5%B6-745713292235945/,,,,,,,
«ԲԻ.ԷՄ.ԷՍ» ՍՏՈՄԱՏՈԼՈԳԻԱԿԱՆ ԿԼԻՆԻԿԱ,Հայաստան, 0015, Երևան,"Պարոնյան փող., 4/1 շենք",(Կենտրոն վարչ. շրջան),37433645444,37494409893,Spyur,https://www.facebook.com/bmsdent,,,,,,,
ՄՈՒՐԱԶ ԳՐԻԳՈՐՅԱՆ անհատ ձեռներեց (ԱՁ),Հայաստան, 0005, Երևան,"Տիգրան Մեծի պող., 48/3 շենք",(Էրեբունի վարչ. շրջան),37494023626,,Spyur,,,,,,,,
«ՄԵՆՈՒԱ ԴԵՆՏ»,Հայաստան, 0034, Երևան,"Սվաճյան փող., 50/5 շենք",(Մալաթիա-Սեբաստիա վարչ. շրջան),37493503517,37491503517,Spyur,https://www.facebook.com/profile.php?id=100008392698544,,,37455503517,37410743517,,,
«ՕՐԹՈ ԼԱՅՆ» ԱՏԱՄՆԱԲՈՒԺԱՐԱՆ,Հայաստան, 0012, Երևան,"Հրաչյա Քոչարի փող., 11 շենք",(Արաբկիր վարչ. շրջան),37441707030,37411707030,Spyur,https://www.facebook.com/vardan.hovhannisyan.ortholine,,,,,,,
«ԱՅԴԻՆՅԱՆ ԴԵՆՏԱԼ ԿԼԻՆԻԿ»,Հայաստան, 0014, Երևան,"Հրաչյա Ներսիսյան փող., 4 շենք",(Քանաքեռ-Զեյթուն վարչ. շրջան),37444320505,,Spyur,https://www.facebook.com/AydinyanDC,,,,,,,
ՀԱՅԿ ԲԱԲԱՅԱՆ անհատ ձեռներեց (ԱՁ),Հայաստան, 0018, Երևան,"Մովսես Խորենացու փող., 110/1 շենք",(Կենտրոն վարչ. շրջան),37410571133,,Spyur,,,,,,,,
«ԴԵՆՏԱՐՏԻՍ»,Հայաստան, 0015, Երևան,"Պարոնյան փող., 4/1 շենք",(Կենտրոն վարչ. շրջան),37410535501,,Spyur,,,,,,,,
«ՈՒԱՅԹ ԲՐԻՋ» ԱՏԱՄՆԱԲՈՒԺԱՐԱՆ,Հայաստան, 0012, Երևան,"Կոմիտասի պող., 5ա շենք",(Արաբկիր վարչ. շրջան),37499302320,37499041411,Spyur,https://www.facebook.com/whitebridgedental/,,,,,,,
«ՎԻՎԱԼԴԻ» ԱՏԱՄՆԱԲՈՒԺԱՐԱՆ,Հայաստան, 0002, Երևան,"Մաշտոցի պող., 31 շենք",(Կենտրոն վարչ. շրջան),37411676666,,Spyur,https://www.facebook.com/vivaldi001/,,,,,,,
«ԴԵՆՏ ԻՔՍ» (ՄԱՆՎԵԼ ՍՈՂՈՄՈՆՅԱՆ անհատ ձեռներեց),Հայաստան, Երևան,,,,37410441327,37455525295,Spyur,,,,,,,,
«ԱՐՇԱԿՅԱՆ ԷՍՏԵՏԻԿՍ ԴԵՆՏԱԼ ԼԱԲ»,Հայաստան, 0096, Երևան,"Նոր Նորքի 2-րդ զանգված, Մոլդովական փող., 29/6 շենք",(Նոր Նորք վարչ. շրջան),37411299288,,Spyur,,,,,,,,
«Վ.Ն.Վ.» ՍՏՈՄԱՏՈԼՈԳԻԱԿԱՆ ԿԼԻՆԻԿԱ,Հայաստան, Երևան,,,,37491355700,,Spyur,https://www.facebook.com/V.N.V.DENTAL,,,,,,,
«ՄԱԳԱ ԴԵՆՏ» ՍՏՈՄԱՏՈԼՈԳԻԱԿԱՆ ԿԼԻՆԻԿԱ,Հայաստան, Արմավիրի մարզ, Էջմիածին,"Չարենցի փող., 5/71 շենք",(Վաղարշապատ համայնք),37494043892,,Spyur,https://www.facebook.com/yourcare888,,,,,,,
«ՄԱՅԻԼՅԱՆՍ» ԱՏԱՄՆԱԲՈՒԺԱՐԱՆ,Հայաստան, 0099, Երևան,"Լենինգրադյան փող., 42 շենք",(Աջափնյակ վարչ. շրջան),37477422019,,Spyur,https://www.facebook.com/mailyansdental,,,,,,,
«ՍՄԱՅԼ ԴԵՆՏ» ՍՏՈՄԱՏՈԼՈԳԻԱԿԱՆ ԿԼԻՆԻԿԱ,Հայաստան, 0602, Արարատի մարզ,"Աբովյան փող., 8/8 շենք",(Արարատ համայնք),37493884487,37441884494,Spyur,https://www.facebook.com/SmileDentClinicArarat,,,,,,,
«ՔԵՅ ՌԵՅ»,Հայաստան, 0056, Երևան,"Նանսենի փող., 13 շենք",(Նոր Նորք վարչ. շրջան),37412224228,,Spyur,https://www.facebook.com/krayclinic/,,,,,,,
«ԱՔՍԻՈՄ» սահմանափակ պատասխանատվությամբ ընկերություն (ՍՊԸ),Հայաստան, Երևան,,,,37411211511,37441411711,Spyur,,,,,,,,
«ԱՏԱՄ» ԷՍԹԵՏԻԿ ՍՏՈՄԱՏՈԼՈԳԻԱՅԻ ԿԵՆՏՐՈՆ,Հայաստան, 0054, Երևան,"Դավթաշեն, 1-ին թաղամաս, 36/10 շենք",(Դավթաշեն վարչ. շրջան),37443711222,,Spyur,https://www.facebook.com/atamesthet,,,,,,,
«ԷԼԱՆԺ» ՍՏՈՄԱՏՈԼՈԳԻԱԿԱՆ ԿԼԻՆԻԿԱ,Հայաստան, Երևան,,,,37410247024,,Spyur,https://www.facebook.com/elangedental,,,,,,,
«ԱՐՏ ԿԼԻՆԻԿ» ԱՏԱՄՆԱԲՈՒԺԱՐԱՆ,Հայաստան, Արարատի մարզ, Արտաշատ,"Իսակովի փող., 70/12 շենք, 1-ին հարկ",(Արտաշատ համայնք),37498555121,37498398998,Spyur,,,,,,,,
«ՄԱՅ ՖԵՄԸԼԻ» ՍՏՈՄԱՏՈԼՈԳԻԱԿԱՆ ԿԼԻՆԻԿԱ,Հայաստան, Արարատի մարզ, Արարատ,"Սպանդարյան փող., 3/5 շենք",(Արարատ համայնք),37493444015,,Spyur,https://www.facebook.com/My-Family-Dental-Clinic-101210785519149,,,,,,,
«ՄԱՐԻ ԿԼԻՆԻԿ» ՍՏՈՄԱՏՈԼՈԳԻԱԿԱՆ ԿԼԻՆԻԿԱ,Հայաստան, Երևան,,,,37495315050,,Spyur,,,,,,,,
«ԱՆՏՈՆՅԱՆ» ԱՏԱՄՆԱԲՈՒԺՈՒԹՅԱՆ ԵՎ ԿՈՍՄԵՏՈԼՈԳԻԱՅԻ ԿԵՆՏՐՈՆ,Հայաստան, 0012, Երևան,"Արամ Խաչատրյան փող., 22 շենք",(Արաբկիր վարչ. շրջան),37495211211,37410222853,Spyur,,,,,,,,
«ԻԴԼ'Ս» ՍՏՈՄԱՏՈԼՈԳԻԱԿԱՆ ԿԼԻՆԻԿԱ,Հայաստան, 0051, Երևան,"Կոմիտասի պող., 44/2 շենք",(Արաբկիր վարչ. շրջան),,37495647136,Spyur,,,,37495647137,,,,
«ԻՄՊԵՐԻԱԼ ԻՄՊԼԱՆՏ ԿԵՆՏՐՈՆ» ՍՏՈՄԱՏՈԼՈԳԻԱԿԱՆ ԿԼԻՆԻԿԱ,Հայաստան, 0012, Երևան,"Վահրամ Փափազյան փող., 29 շենք",(Արաբկիր վարչ. շրջան),37410320105,,Spyur,https://www.facebook.com/IMIMCE/,,,,,,,
«ԷՅ ԸՆԴ ԷՍ» ՍՏՈՄԱՏՈԼՈԳԻԱԿԱՆ ԿԼԻՆԻԿԱ,Հայաստան, Երևան,,,,37411755090,,Spyur,https://www.facebook.com/DentalClinicAS,,,,,,,
«ԱՍ ԴԵՆՏ»,Հայաստան, Երևան,,,,37496747788,,Spyur,,,,,,,,
«ՕՐԹՈԼՅՈՒՔՍ» ՍՏՈՄԱՏՈԼՈԳԻԱԿԱՆ ԿԼԻՆԻԿԱ,Հայաստան, Երևան,,,,37493401856,37491401856,Spyur,,,,,,,,
«ԼԱՔՇՐԻ ՍՄԱՅԼ» ԱՏԱՄՆԱԲՈՒԺԱԿԱՆ ԿԼԻՆԻԿԱ,Հայաստան, 0076, Երևան,"Նոր Նորքի 4-րդ զանգված, Գյուլիքեխվյան փող., 10 շենք",(Նոր Նորք վարչ. շրջան),37498921010,37496921010,Spyur,,,,,,,,
«ՀԵԼԻՈ ԴԵՆՏ» ՇՈՒՐՋՕՐՅԱ ՍՏՈՄԱՏՈԼՈԳԻԱԿԱՆ ԿԼԻՆԻԿԱ,Հայաստան, 0033, Երևան,"Վիկտոր Համբարձումյան փող., 3 շենք",(Արաբկիր վարչ. շրջան),37477263463,,Facebook,,,,,,,,
«ԷՄ ԴԵՆՏ» ԱՏԱՄՆԱԲՈՒԺԱՐԱՆ,Հայաստան, Երևան,,,,37499707272,37496707272,Spyur,,,,,,,,
«ՎԱՆ ԴԵՆՏ» ՍՏՈՄԱՏՈԼՈԳԻԱԿԱՆ ԿԼԻՆԻԿԱ,Հայաստան, Արարատի մարզ, Արևշատ գյուղ,"Մուրացանի փող., 42",(Արտաշատ համայնք),37477182292,37455120230,Spyur,https://www.facebook.com/david.karapetyan.18062,,,,,,,
«ԼԻԲՐԱԴԵՆՏ» ԱՏԱՄՆԱԲՈՒԺԱՐԱՆ,Հայաստան, 0002, Երևան,"Սարյան փող., 25 շենք",(Կենտրոն վարչ. շրջան),37410563536,,Spyur,,,,,,,,
«ԶԵԹԷՅ ԴԵՆՏ» ՍՏՈՄԱՏՈԼՈԳԻԱԿԱՆ ԿԼԻՆԻԿԱ,Հայաստան, Կոտայքի մարզ, Հրազդան,"Սահմանադրության հրպ., 14 շենք",(Հրազդան համայնք),37493333582,37493260252,Spyur,https://www.facebook.com/stomatologicalcenter/,,,,,,,
«ՌԱՖԱՅԵԼ» ԱՏԱՄՆԱԲՈՒԺԱԿԱՆ ԿԼԻՆԻԿԱ,Հայաստան, Երևան,,,,37410424177,37491546700,Spyur,,,,,,,,
«ՅՈՒՆԻ ՍՏՈՄ»,Հայաստան, 0033, Երևան,"Վիկտոր Համբարձումյան փող., 6 շենք",(Արաբկիր վարչ. շրջան),37493352853,37498735168,Spyur,https://www.facebook.com/unistomarmenia,,,,,,,
«ԺՊԻՏ» ՍՏՈՄԱՏՈԼՈԳԻԱԿԱՆ ԿԼԻՆԻԿԱ,Հայաստան, Լոռու մարզ, Վանաձոր,"Գրիգոր Լուսավորչի փող., 54ա1 շենք",(Վանաձոր համայնք),37432220502,,Spyur,https://www.facebook.com/ZpitStomatologiakanKlinika,,,,,,,
«ԲԵԼԼԻՍՍԻՄՈ» ԱՏԱՄՆԱԲՈՒԺԱԿԱՆ ԿԼԻՆԻԿԱ,Հայաստան, 0054, Երևան,"Դավթաշեն, 4-րդ թաղամաս, 2ա շենք",(Դավթաշեն վարչ. շրջան),37410360010,,Spyur,https://www.facebook.com/Bellissimo-Dental-Clinic-104907408274611,,,,,,,
«ԱՆԴՐԵԱՍՅԱՆ» ԱՏԱՄՆԱԲՈՒԺԱՐԱՆ ԵՎ ԿՈՍՄԵՏՈԼՈԳԻԱՅԻ ԿԵՆՏՐՈՆ,Հայաստան, Արմավիրի մարզ, Էջմիածին,"Վազգեն Առաջինի փող., 10ա շենք",(Վաղարշապատ համայնք),37498040848,37498040800,Spyur,https://www.facebook.com/andreasyandentalclinic/,,,37423140402,,,,
«ԻՍՈԴԵՆՏ» ՇՈՒՐՋՕՐՅԱ ՍՏՈՄԱՏՈԼՈԳԻԱԿԱՆ ԿԼԻՆԻԿԱ,Հայաստան, 0005, Երևան,"Արցախի պող., 13/5 շենք",(Էրեբունի վարչ. շրջան),37498351919,,Spyur,https://www.facebook.com/IsoDentClinic,,,,,,,
«ՍԱՅԱՄՅԱՆՍ ՍԱՄԻԿԻ ԿԼԻՆԻԿԱ» ԱՏԱՄՆԱԲՈՒԺԱՐԱՆ,Հայաստան, Երևան,,,,37491522034,,Spyur,,,,,,,,
ԼԱՐԻՍԱ ՔԱԼԱՇՅԱՆ անհատ ձեռնարկատեր (ԱՁ),Հայաստան, 0005, Երևան,"Արցախի պող., 13/5 շենք",(Էրեբունի վարչ. շրջան),37498351919,,Spyur,,,,,,,,
«ԲԵՐԱԿՉՅԱՆ ԴԵՆՏ»,Հայաստան, 0069, Երևան,"Պարույր Սևակի փող., 51/9 շենք",(Քանաքեռ-Զեյթուն վարչ. շրջան),37491574387,,Spyur,https://www.facebook.com/profile.php?id=100063518832942,,,,,,,
ՀՐԱՉՅԱ ՕՀԱՆՅԱՆ անհատ ձեռնարկատեր (ԱՁ),Հայաստան, Երևան,,,,37477899821,37433899821,Spyur,https://www.facebook.com/Dr.HrachyaOhanyan/,,,,,,,
«ԴԵՆՏԱԼ ՊՐՈՏԵԿՏ» (ՀԱԿՈԲ ԲԱՐՍԵՂՅԱՆ անհատ ձեռներեց),Հայաստան, 0012, Երևան,"Կոմիտասի պող., 7/1 շենք",(Արաբկիր վարչ. շրջան),37444262211,37410262211,Spyur,https://www.facebook.com/dentalprotectandaesthetics/,,,,,,,
«ԱՎԵԴԵՆՏ» ԱՏԱՄՆԱԲՈՒԺԱՐԱՆ,Հայաստան, 0039, Երևան,"Արտաշիսյան փող., 40/8 շենք",(Շենգավիթ վարչ. շրջան),37410461266,37494828249,Spyur,https://www.facebook.com/praxis.avedent,,,,,,,
«ՌԵԼԱՔՍ» ԱՏԱՄՆԱԲՈՒԺԱՐԱՆ սահմանափակ պատասխանատվությամբ ընկերություն (ՍՊԸ),Հայաստան, Կոտայքի մարզ, Աբովյան,"Ս. Մնացականյան փող., 48 շենք",(Աբովյան համայնք),37455911011,37496017517,Spyur,https://www.facebook.com/relaxdentalofficial,,,,,,,
«ԱՐ ԷՍ ՔԵՅ ԷՅ ԴԵՆՏԱԼ ԱՐՏ-ՍՏՈՒԴԻՈ» ԱՏԱՄՆԱԲՈՒԺԱՐԱՆ,Հայաստան, Երևան,,,,37411792244,37494479977,http://dentartstudio.com/,,,,37444792244,,,,
«ԱՔՍԷՌ» ՍՏՈՄԱՏՈԼՈԳԻԱԿԱՆ ԿԼԻՆԻԿԱ,Հայաստան, Կոտայքի մարզ, Աբովյան,"Հատիսի փող., 1/73 շենք",(Աբովյան համայնք),37493670566,37455670566,Spyur,https://www.facebook.com/aqserabovyan/,,,,,,,
ԱՇՈՏ ՂԱԶԱՐՅԱՆ անհատ ձեռներեց (ԱՁ),Հայաստան, 0009, Երևան,"Կորյունի փող., 8 շենք, բն.4",(Կենտրոն վարչ. շրջան),37410527116,37491418555,Spyur,,,,37455418555,,,,
«ԴԵՆՏՈԼԱՅՖ» ՍՏՈՄԱՏՈԼՈԳԻԱԿԱՆ ԿԼԻՆԻԿԱ,Հայաստան, Երևան,,,,37412251025,37499351999,Spyur,,,,,,,,
«32» ՍՏՈՄԱՏՈԼՈԳԻԱԿԱՆ ԿԼԻՆԻԿԱ,Հայաստան, 0056, Երևան,"Նոր Նորքի 1-ին զանգված, Գայի պող., 10/3 շենք",(Նոր Նորք վարչ. շրջան),37491322222,37443322200,Spyur,https://www.facebook.com/32stomclinic,,,,,,,
«ԱՈՒՐԱ» ՍՏՈՄԱՏՈԼՈԳԻԱԿԱՆ ԿԼԻՆԻԿԱ,Հայաստան, Երևան,,,,37455211213,,Spyur,https://www.facebook.com/AuraDentalClinics,,,,,,,
«ՓԵՐՖԵԿՏԱ» ԲԺՇԿԱԿԱՆ ԿԵՆՏՐՈՆ,Հայաստան, 0009, Երևան,"Աբովյան փող., 44 շենք",(Կենտրոն վարչ. շրջան),37441333325,37411333325,Spyur,https://www.facebook.com/PerfectaYerevan,,,,,,,
«ԱՎԱԼՈՆ ԴԵՆՏԱԼ» ՍՏՈՄԱՏՈԼՈԳԻԱԿԱՆ ԿԵՆՏՐՈՆ սահմանափակ պատասխանատվությամբ ընկերություն (ՍՊԸ),Հայաստան, 0018, Երևան,"Մովսես Խորենացու փող., 47/7 շենք",(Կենտրոն վարչ. շրջան),37477909570,,Spyur,https://www.facebook.com/avalondentalevn,,,,,,,
«ԱԼԻՆԱ ԲԱՂԴԱՍԱՐՅԱՆ ԴԵՆՏԱԼ ԿԼԻՆԻԿ»,Հայաստան, 0038, Երևան,"Էստոնական փող., 14 շենք",(Աջափնյակ վարչ. շրջան),37491507283,37410394523,Spyur,,,,,,,,
«ՄԵԳԱ ԴԵՆՏ» ԱՏԱՄՆԱԲՈՒԺԱՐԱՆ,Հայաստան, Երևան,,,,37493507060,,Spyur,https://www.facebook.com/Mega-Dent-106286418057276,,,,,,,
«ԷՅ ԴԻ ԴԵՆՏ»,Հայաստան, Երևան,,,,37455380502,37410224266,Spyur,https://www.facebook.com/ad.dent.clinic,,,,,,,
«ՓԻ ԷՍ ՍՏՈՄԱՏՈԼՈՋԻ»,Հայաստան, Երևան,,,,37477674968,37493814342,Spyur,,,,,,,,
«ԴՐԱՄՓՅԱՆ» ԱՏԱՄՆԱԲՈՒԺԱԿԱՆ ԿԼԻՆԻԿԱ,Հայաստան, 0099, Երևան,"Լենինգրադյան փող., 38 շենք",(Աջափնյակ վարչ. շրջան),37491406769,,Spyur,https://www.facebook.com/drampyandentalclinic,,,,,,,
«ՍԱՐԳՍՅԱՆՍ» ԱՏԱՄՆԱԲՈՒԺԱՐԱՆ,Հայաստան, 0034, Երևան,"Անդրանիկի փող., 50 շենք, տարածք 1/1",(Մալաթիա-Սեբաստիա վարչ. շրջան),37499333290,,Spyur,,,,,,,,
«ԷՏԱԼՈՆ» ԱՏԱՄՆԱԲՈՒԺԱՐԱՆ,Հայաստան, 0056, Երևան,"Նոր Նորքի 1-ին զանգված, Նանսենի փող., 6 շենք",(Նոր Նորք վարչ. շրջան),37499246890,37495246890,Spyur,https://www.facebook.com/Etalondentalclinic,,,,,,,
«ԱՐԴԵՆՏ» ԱՏԱՄՆԱԲՈՒԺԱՐԱՆ,Հայաստան, 0006, Երևան,"Մանթաշյան փող., 26 շենք",(Շենգավիթ վարչ. շրջան),37494944107,,Spyur,https://www.facebook.com/ardentdentalclinic,,,,,,,
«ՎԻԷԼ ԴԵՆՏ» ԱՏԱՄՆԱԲՈՒԺԱՐԱՆ,Հայաստան, 0078, Երևան,"Մարգարյան փող., 43 շենք",(Աջափնյակ վարչ. շրջան),37491206273,37491110081,Spyur,,,,,,,,
«ԹՈՓՉՅԱՆ» ԱՏԱՄՆԱԲՈՒԺԱՐԱՆ,Հայաստան, 0019, Երևան,"Մարշալ Բաղրամյան պող., 31ա շենք",(Արաբկիր վարչ. շրջան),37410262226,37493901796,Spyur,https://www.facebook.com/Topchyan-Dental-Clinic-598484373564338,,,,,,,
«ԴՈԿՏՈՐ ՖԵՅՍ» ԱՏԱՄՆԱԲՈՒԺԱՐԱՆ,Հայաստան, Երևան,,,,37433200820,,Spyur,https://www.facebook.com/dr.face.clinic,,,,,,,
«ՓՐԱՅՄ ԿԼԻՆԻԿ»,Հայաստան, 0014, Երևան,"Մամիկոնյանց փող., 29 շենք",(Արաբկիր վարչ. շրջան),37412580110,37496580110,Spyur,https://www.facebook.com/PrimeClinicYerevan,,,,,,,
«ՄՈՒՐԱԴԵՆՏ» ԱՏԱՄՆԱԲՈՒԺԱՐԱՆ,Հայաստան, Արմավիրի մարզ, Էջմիածին,"Մաշտոցի փող., 8/10 շենք",(Վաղարշապատ համայնք),37498756303,37423156303,Spyur,https://www.facebook.com/mura.dent,,,,,,,
«ԷՅՉ ԸՆԴ ՈՒԱՅ ԴԵՆՏԱԼ ՔԵՅՐ» ԱՏԱՄՆԱԲՈՒԺԱՐԱՆ,Հայաստան, Երևան,,,,37477899821,37433899821,Spyur,,,,,,,,
«ԷՍԹԵԴԵՆՏ» ՍՏՈՄԱՏՈԼՈԳԻԱԿԱՆ ԿԼԻՆԻԿԱ,Հայաստան, 0078, Երևան,"Հալաբյան փող., 57/2 շենք",(Աջափնյակ վարչ. շրջան),37494363297,,Spyur,https://www.facebook.com/EstheDent-1559703164300457,,,,,,,
«ԱԹՈՅԱՆ ԴԵՆՏԱԼ ԿԼԻՆԻԿ»,Հայաստան, 0039, Երևան,"Բագրատունյաց փող., 28 շենք",(Շենգավիթ վարչ. շրջան),37491558081,37493558040,Spyur,https://www.facebook.com/dentalclinicatoyan2021,,,,,,,
«ԳՅՈՒՐՋՅԱՆ ԿԵՆՏՐՈՆ»,Հայաստան, Արարատի մարզ, Նոր Խարբերդ գյուղ,"Երևանյան խճուղի, 53/3 տուն",(Մասիս համայնք),37493835252,37493523952,Spyur,https://www.facebook.com/GyurjyanCenter,,,,,,,
«ՓՈԼ ԸՆԴ ՓԻԹԵՐ» ԱՏԱՄՆԱԲՈՒԺԱԿԱՆ ԿԼԻՆԻԿԱ,Հայաստան, 0051, Երևան,"Կոմիտասի պող., 54 շենք",(Արաբկիր վարչ. շրջան),37412506050,,Spyur,https://www.facebook.com/paulpeterdentalclinic,,,,,,,
«ՍՄԱՅԼ ԴԻԶԱՅՆ» ՍՏՈՄԱՏՈԼՈԳԻԱԿԱՆ ԿԵՆՏՐՈՆ,Հայաստան, Երևան,,,,37494419914,37477226119,Spyur,https://www.facebook.com/SMILE-Design-Dental-Center-103034865553187,,,,,,,
«ԲԺԻՇԿ ԳԱՐԻԿ ՄԱՆՈՒԿՅԱՆ» ԱՏԱՄՆԱԲՈՒԺԱՐԱՆ,Հայաստան, Երևան,,,,37494747841,,Spyur,https://www.facebook.com/dr.garik.manukyan,,,,,,,
«ԷՅՉ ԷՍ ԴԵՆՏ» ՍՏՈՄԱՏՈԼՈԳԻԱԿԱՆ ԿԼԻՆԻԿԱ,Հայաստան, Սյունիքի մարզ, Սիսիան,"Որոտանի փող., 4/1-50 շենք",(Սիսիան համայնք),37498638118,,Spyur,,,,,,,,
«ԳԵՎՈՐԳՅԱՆ» ԱՏԱՄՆԱԲՈՒԺԱՐԱՆ,Հայաստան, Երևան,,,,37499222332,,Spyur,,,,,,,,
«ՎԵԼՆԵՍ» ԱՏԱՄՆԱԲՈՒԺԱԿԱՆ ԿԼԻՆԻԿԱ,Հայաստան, 0019, Երևան,"Մարշալ Բաղրամյան պող., 33ա շենք",(Արաբկիր վարչ. շրջան),37433800032,37443737777,Spyur,https://www.facebook.com/Wellness-Dental-Clinic-106862121474276,,,37498099980,,,,
«ՌԻՆ ԱՐԹ ԴԵՆՏԱԼ»,Հայաստան, 0028, Երևան,"Կիևյան փող., 2բ շենք",(Արաբկիր վարչ. շրջան),37412395955,37410395955,http://www.rinart.am/,https://www.facebook.com/RinArtDentalAesthetics,,,37444395955,,,,
«ԳԱԲՐԻԵԼ ԻՓԵՔՉՅԱՆ - ԱՏԱՄՆԱԲՈՒՅԺ»,Հայաստան, 0033, Երևան,"Մարշալ Բաղրամյան պող., 68 շենք",(Արաբկիր վարչ. շրջան),37494066554,,Spyur,https://www.facebook.com/dr.gabriel.ipekjian,,,,,,,
«ՄԱԹԵՎՈՍՅԱՆ» ԱՏԱՄՆԱԲՈՒԺԱԿԱՆ ԿԼԻՆԻԿԱ,Հայաստան, 0001, Երևան,"Սայաթ-Նովայի պող., 20 շենք",(Կենտրոն վարչ. շրջան),37410565544,37433565544,Spyur,https://www.facebook.com/MatevosyanDentalClinic/,,,,,,,
«ԱՎԱՆՍ ԿԼԻՆԻԿ»,Հայաստան, Երևան,,,,37499434343,,Spyur,https://www.facebook.com/avansclinic/,,,,,,,
«ՄՈՒՇ ԴԵՆՏ»,Հայաստան, Լոռու մարզ, Վանաձոր,"Տերյան փող., 1-15 շենք",(Վանաձոր համայնք),37494643406,,Spyur,https://www.facebook.com/profile.php?id=100004326558660,,,,,,,
«ԴԵՄԻՐՃՅԱՆ» ԲԺՇԿԱԿԱՆ ԿԵՆՏՐՈՆ,Հայաստան, 0002, Երևան,"Դերենիկ Դեմիրճյան փող., 12-14 շենք, տարածք 18",(Կենտրոն վարչ. շրջան),37411271127,37441428474,Spyur,https://www.facebook.com/DemirchyanMC/,,,,,,,
«ՖԻԴԵՍ ԴԵՆՏ» ԱՏԱՄՆԱԲՈՒԺԱՐԱՆ,Հայաստան, Շիրակի մարզ, Գյումրի,"Շիրակացու փող., 205ա շենք, 1-ին հարկ",,37498464465,37493408308,Spyur,https://www.facebook.com/ata.hovhannisyan.7,,,,,,,
«ԳՈՒԼՅԱՆ ԴԵՆՏԱԼ»,Հայաստան, Կոտայքի մարզ, Աբովյան,"Ավագյան փող., 1/14 շենք",(Աբովյան համայնք),37493523886,,Spyur,https://www.facebook.com/Gulyan-Dental-Clinic-105945587557069/,,,,,,,
«ՎԻ ԷՄ ԴԵՆՏԱԼ»,Հայաստան, 0056, Երևան,"Նոր Նորքի 3-րդ զանգված, Գայի պող., 24 շենք",(Նոր Նորք վարչ. շրջան),37410632504,,Spyur,https://www.facebook.com/Vmclinicdental,,,,,,,
«ԱՐՏՅՈՄ ՄԱՆՈՒԿՅԱՆԻ ԱՏԱՄՆԱԲՈՒԺԱԿԱՆ ԿԵՆՏՐՈՆ»,Հայաստան, Շիրակի մարզ, Գյումրի,"Ղանդիլյան փող., 49 շենք, տարածք 1/1",,37494036699,,Spyur,https://m.facebook.com/AManukyandentalcenter/?ref=py_c,,,,,,,
«ԱՍ ԴԵՆՏ»,Հայաստան, 0079, Երևան,"Բադալ Մուրադյան փող., 1 շենք",(Նոր Նորք վարչ. շրջան),37499666066,,Spyur,https://www.facebook.com/asdentalclinic1,,,,,,,
«ՄԵԴԻՈՒԵՅ» ՍՏՈՄԱՏՈԼՈԳԻԱԿԱՆ ԿԼԻՆԻԿԱ,Հայաստան, 0015, Երևան,"Իսրայելյան փող., 43 շենք, տարածք 1 (մուտքը՝ Սերգեյ Փարաջանովի փող. կողմից)",(Կենտրոն վարչ. շրջան),37411310310,,Spyur,https://www.facebook.com/people/Mediway-Dental-Clinic-and-more/100088744800532/,,,,,,,
«ՍՄԱՐԹ ՄԵԴ» ԱՏԱՄՆԱԲՈՒԺԱՐԱՆ ԵՎ ԿՈՍՄԵՏՈԼՈԳԻԱԿԱՆ ԿԵՆՏՐՈՆ,Հայաստան, Երևան,,,,37441015502,,Spyur,https://www.facebook.com/SmartMedclinics,,,,,,,
«ՍԱՀԱԿՅԱՆ» ԱՏԱՄՆԱԲՈՒԺԱԿԱՆ ԿԼԻՆԻԿԱ,Հայաստան, Երևան,,,,37499081018,37498451488,Spyur,,,,,,,,
«ԷՍՏԵՏԻԿԱ» ՍՏՈՄԱՏՈԼՈԳԻԱԿԱՆ ԿԵՆՏՐՈՆ,Հայաստան, Երևան,,,,37441600400,37495600400,https://www.estetica.am/,https://www.facebook.com/am.estetica.dental.center/,,,,,,,
ՄԱՍԻՍԻ ՍՏՈՄԱՏՈԼՈԳԻԱԿԱՆ ՊՈԼԻԿԼԻՆԻԿԱ փակ բաժնետիրական ընկերություն (ՓԲԸ),Հայաստան, Արարատի մարզ, Մասիս,"Դպրոցականների փող., 5 շենք",(Մասիս համայնք),37423641221,,Spyur,,,,,,,,
«ՋԻԹԻ» ԱՏԱՄՆԱԲՈՒԺԱԿԱՆ ԿԼԻՆԻԿԱ,Հայաստան, Տավուշի մարզ, Իջևան,"Անկախության փող., 23 շենք, 1-ին հարկ",(Իջևան համայնք),37498277577,37455196252,Spyur,,,,,,,,
«ՏԼ ԴԵՆՏԱԼ»,Հայաստան, Երևան,,,,,37493317194,Spyur,,,,,,,,
«ԲԺԻՇԿ ԱՆԴՐԱՆԻԿ ԱՇՃԵԱՆ - ՍՏՈՄԱՏՈԼՈԳ-ՎԻՐԱԲՈՒՅԺ»,Կիպրոս, Նիկոսիա,,,,35722028818,35722666882,https://www.nicosiadentalclinic.com/,,,,,,,,
«ԷՖ ԴԻ ՍԻ» ՍՏՈՄԱՏՈԼՈԳԻԱԿԱՆ ԿԼԻՆԻԿԱ,Հայաստան, Երևան,,,,37455001020,,Spyur,https://www.facebook.com/fdcstom,,,,,,,
«ՍԱՆՈՒՍ ԴԵՆՏ»,Հայաստան, Լոռու մարզ, Վանաձոր,"Տարոն-2, 59/2 շենք",(Վանաձոր համայնք),37433977102,,Spyur,https://www.facebook.com/profile.php?id=100063690228296,,,,,,,
«ԷԼԻՔՍ ԿԼԻՆԻԿ» ՍՏՈՄԱՏՈԼՈԳԻԱԿԱՆ ԿԵՆՏՐՈՆ,Հայաստան, Երևան,,,,37455763080,,https://elixclinic.am/,,,,,,,,
«ՍՏՈՄԱՏԻԿ» ՍՏՈՄԱՏՈԼՈԳԻԱԿԱՆ ԿԼԻՆԻԿԱ,Հայաստան, Արագածոտնի մարզ, Ապարան,"Մարշալ Բաղրամյան փող., 4/10 շենք",(Ապարան համայնք),37493411833,37477725674,Spyur,,,,,,,,
«ԲԵԼՈՒՉԻ» ՍՏՈՄԱՏՈԼՈԳԻԱՅԻ ԵՎ ԷՍԹԵՏԻԿ ԲԺՇԿՈՒԹՅԱՆ ԿԼԻՆԻԿԱ,Հայաստան, 0009, Երևան,"Մաշտոցի պող., 54ա շենք",(Կենտրոն վարչ. շրջան),37494396220,37495396220,Spyur,https://www.facebook.com/NoravyanAesthetics,,,,,,,
«ԷՄ ԷՌ ԴԵՆՏ»,Հայաստան, 0012, Երևան,"Հրաչյա Քոչարի փող., 22 շենք",(Արաբկիր վարչ. շրջան),37410222274,37491214528,Spyur,https://www.facebook.com/profile.php?id=100063703056931,,,,,,,
ԱՆՆԱ ԱԴԱՄՅԱՆ անհատ ձեռներեց (ԱՁ),Հայաստան, Երևան,,,,37410625716,,Spyur,,,,,,,,
«ԴԵԼՏԱ ԴԵՆՏ» ԱՏԱՄՆԱԲՈՒԺԱՐԱՆ,Հայաստան, Լոռու մարզ, Վանաձոր,"Վարդանանց փող., 86/2 շենք",(Վանաձոր համայնք),37432240401,37495840401,Spyur,https://www.facebook.com/tatev.hovhannisyan.948,,,,,,,
«ՏԻԳԱԼՅՈՒՔՍ» ԱՏԱՄՆԱԲՈՒԺԱՐԱՆ,Հայաստան, Շիրակի մարզ, Գյումրի,"Շիրակացու փող., 201/1 շենք",,37498900312,,Spyur,https://www.facebook.com/Tigalux2013,,,,,,,
«ՍՏՈՄ ԱՐՏ» ՍՏՈՄԱՏՈԼՈԳԻԱԿԱՆ ԿԼԻՆԻԿԱ,Հայաստան, Շիրակի մարզ, Գյումրի,"Շիրակացու փող., 29 շենք",,37494736791,,Spyur,https://www.facebook.com/profile.php?id=100066881442670,,,,,,,
«ԱՐՏ ՍՏՈՄ» ՍՏՈՄԱՏՈԼՈԳԻԱԿԱՆ ԿԼԻՆԻԿԱ,Հայաստան, Արարատի մարզ, Արտաշատ,"Մարքսի փող., 11ա շենք",(Արտաշատ համայնք),37423524767,,Spyur,https://www.facebook.com/profile.php?id=100063838350520,,,,,,,
«ԳԼԱՎ ՍՏՈՄ» ԱՏԱՄՆԱԲՈՒԺԱՐԱՆ,Հայաստան, Արարատի մարզ, Արտաշատ,"Աթարբեկյան փող., 66 շենք",(Արտաշատ համայնք),37498221177,37433201177,Spyur,https://www.facebook.com/glavstomArtashat,,,,,,,
«ԲԵՆԱՆՏ» ՍՏՈՄԱՏՈԼՈԳԻԱԿԱՆ ԿԵՆՏՐՈՆ,Հայաստան, 0033, Երևան,"Կոմիտասի պող., 12 շենք, բն.50",(Արաբկիր վարչ. շրջան),37410275007,,Spyur,,,,,,,,
«ԱՐՄԱՐԵ» ԱՏԱՄՆԱԲՈՒԺԱԿԱՆ ԿԼԻՆԻԿԱ,Հայաստան, 0014, Երևան,"Կոմիտասի պող., 57 շենք",(Արաբկիր վարչ. շրջան),37410235654,37499235654,Spyur,https://www.facebook.com/armaredent,,,,,,,
«ԴԻՎԻ ԴԵՆԹ» ՍՏՈՄԱՏՈԼՈԳԻԱԿԱՆ ԿԵՆՏՐՈՆ,Հայաստան, 0033, Երևան,"Գյուլբենկյան փող., 27/1 շենք",(Արաբկիր վարչ. շրջան),37410522332,,http://www.divident.dental,,,,,,,,
«ԷՆ ՏԵ ԷԼ» ԱՏԱՄՆԱԲՈՒԺԱՐԱՆ,Հայաստան, 0051, Երևան,"Կոմիտասի պող., 38 շենք («Քեյ-Էֆ-Սի»-ի դիմաց)",(Արաբկիր վարչ. շրջան),37410221812,,Spyur,https://www.facebook.com/NTLdentalclinic,,,,,,,
«ՏԻԳՐԱՆ ԹՈՐՈՍՅԱՆ - ԱՏԱՄՆԱԲՈՒՅԺ»,Հայաստան, 0012, Երևան,"Կոմիտասի պող., 15 շենք",(Արաբկիր վարչ. շրջան),37410325546,37491412097,Spyur,,,,,,,,
«ՌՈԲԻԴԵՆՏ» ԱՏԱՄՆԱԲՈՒԺԱԿԱՆ ՊՈԼԻԿԼԻՆԻԿԱ,Հայաստան, Երևան,,,,,37410230071,Spyur,https://www.facebook.com/Robident-Clinic-340850197302405,,,37460440307,,,,
«Ա. ԳՐԻԳՈՐՅԱՆ» ՍՏՈՄԱՏՈԼՈԳԻԱԿԱՆ ԿԵՆՏՐՈՆ սահմանափակ պատասխանատվությամբ ընկերություն (ՍՊԸ),Հայաստան, 0012, Երևան,"Կոմիտասի պող., 14 շենք",(Արաբկիր վարչ. շրջան),37410263787,,Spyur,,,,,,,,
«ՓԱՅԼ» ԱՏԱՄՆԱԲՈՒԺԱՐԱՆ («ՓԱՅԼ-ԴԵՆՏ» սահմանափակ պատասխանատվությամբ ընկերություն),Հայաստան, 0010, Երևան,"Խանջյան փող., 15 շենք",(Կենտրոն վարչ. շրջան),37477237731,,Spyur,https://www.facebook.com/Phayl.Dent,,,,,,,
«ԼԱԿԻԴԵՆՏ» ԱՏԱՄՆԱԲՈՒԺԱՐԱՆ սահմանափակ պատասխանատվությամբ ընկերություն (ՍՊԸ),Հայաստան, 0037, Երևան,"Ազատության պող., 3 շենք, բն.30",(Արաբկիր վարչ. շրջան),37410205952,,Spyur,,,,,,,,
«ՎԵԼՄԵԴ» ՍՏՈՄԱՏՈԼՈԳԻԱԿԱՆ ԿԵՆՏՐՈՆ սահմանափակ պատասխանատվությամբ ընկերություն (ՍՊԸ),Հայաստան, 0039, Երևան,"Բագրատունյաց փող., 12 շենք",(Շենգավիթ վարչ. շրջան),37494775005,37410420163,Spyur,https://www.facebook.com/wellmeddentalcenter,,,,,,,
«ԴԴԴ» ՀԱՄԱԼԻՐ («ԱՌՆԱԴՕ» սահմանափակ պատասխանատվությամբ ընկերություն),Հայաստան, 0051, Երևան,"Կոմիտասի պող., 54վ շենք",(Արաբկիր վարչ. շրջան),08002200,37410284100,Spyur,,,,37410244799,,,,
«ՍՏՈՄԱԼՅՈՒՔՍ» ԱՏԱՄՆԱԲՈՒԺԱՐԱՆ սահմանափակ պատասխանատվությամբ ընկերություն (ՍՊԸ),Հայաստան, Շիրակի մարզ, Գյումրի,"Ռուսթավելու փող., 58/6 շենք",,37431253990,37477030099,http://www.stomalux.info,,,,,,,,
«ՆԻԿԱՄԵԴ» ԱՏԱՄՆԱԲՈՒԺԱՐԱՆ ԵՎ ԴԵՂԱՏՈՒՆ,Հայաստան, Երևան,,,,37410740140,37491740140,http://www.nikamed.am,,,,37455740140,,,,
«ԴԵՆՏԱԼ ՖԱՐՄ» ԱՏԱՄՆԱԲՈՒԺԱՐԱՆ ԵՎ ԴԵՂԱՏՈՒՆ,Հայաստան, 0033, Երևան,"Կոմիտասի պող., 3 շենք",(Արաբկիր վարչ. շրջան),37410222813,,Spyur,,,,,,,,
«ԼՅՈՒՔՍՈԴԵՆՏ» ՍՏՈՄԱՏՈԼՈԳԻԱԿԱՆ ԿԵՆՏՐՈՆ,Հայաստան, 0070, Երևան,"Քաջազնունու փող., 9 շենք",(Կենտրոն վարչ. շրջան),37455078878,37410578808,Spyur,,,,,,,,
«ԻՆԱ ԴԵՆՏ» ԱՏԱՄՆԱԲՈՒԺԱՐԱՆ (ԱՐՏԱԿ ԼԱԼԱՅԱՆ անհատ ձեռներեց),Հայաստան, 0033, Երևան,"Կիևյան փող., 11 շենք",(Արաբկիր վարչ. շրջան),37410221297,37491492905,Spyur,https://www.facebook.com/profile.php?id=100063672151596,,,,,,,
«ԸՆՏԱՆԵԿԱՆ ՍՏՈՄԱՏՈԼՈԳԻԱԿԱՆ ԿԼԻՆԻԿԱ»,Հայաստան, 0051, Երևան,"Կոմիտասի պող., 49/4 շենք, 1-ին հարկ",(Արաբկիր վարչ. շրջան),37410234862,37496144087,Spyur,,,,,,,,
«ՎԻԱՐԴԵՆՏ» ԱՏԱՄՆԱԲՈՒԺԱՐԱՆ,Հայաստան, 0018, Երևան,"Տիգրան Մեծի պող., 24 շենք",(Կենտրոն վարչ. շրջան),37410569767,37493676800,Spyur,https://www.facebook.com/Viardent-302801909916436,,,37493546401,,,,
«ՎԱԳԱՍ»,Հայաստան, Երևան,,,,37410737205,37499811010,Spyur,,,,37491811010,37477811010,37455811010,37495811010,37496811012
«ԷՖ-ԷՔՍ» ՍՏՈՄԱՏՈԼՈԳԻԱԿԱՆ ԿԵՆՏՐՈՆ,Հայաստան, 0033, Երևան,"Կիևյան փող., 22 շենք",(Արաբկիր վարչ. շրջան),37410272791,37491413359,Spyur,,,,,,,,
«ԳԵՂԱՄԱ» ՍՏՈՄԱՏՈԼՈԳԻԱԿԱՆ ԿԼԻՆԻԿԱ սահմանափակ պատասխանատվությամբ ընկերություն (ՍՊԸ),Հայաստան, 0001, Երևան,"Աբովյան փող., 34ա շենք",(Կենտրոն վարչ. շրջան),37410521442,37499521442,Spyur,https://www.facebook.com/stomatologarmenia,,,37496521442,,,,
ՄԱՐՏՈՒՆՈՒ ԱՏԱՄՆԱԲՈՒԺԱՐԱՆ պետական փակ բաժնետիրական ընկերություն (ՊՓԲԸ),Հայաստան, Գեղարքունիքի մարզ, Մարտունի,"Գետափնյա փող., 2բ շենք",(Մարտունի համայնք),37426241326,37494216280,Spyur,,,,,,,,
«ԱՐՍԵԼ Դ» ԱՏԱՄՆԱԲՈՒԺԱԿԱՆ ԿԵՆՏՐՈՆ,Հայաստան, 0039, Երևան,"Չեխովի փող., 14/33 շենք",(Շենգավիթ վարչ. շրջան),37410420783,,Spyur,,,,,,,,
«ԱՐՄԻՆԵ ՄԱՐՏԻՐՈՍՅԱՆ» ԱՏԱՄՆԱԲՈՒԺԱՐԱՆ անհատ ձեռնարկատեր (ԱՁ),Հայաստան, 0097, Երևան,"Նորաշեն (16-րդ թաղամաս), 33 շենք",(Աջափնյակ վարչ. շրջան),37410355788,,Spyur,,,,,,,,
«ԴԵՆՍ» ՍՏՈՄԱՏՈԼՈԳԻԱԿԱՆ ԿԵՆՏՐՈՆ սահմանափակ պատասխանատվությամբ ընկերություն (ՍՊԸ),Հայաստան, Լոռու մարզ, Վանաձոր,"Վարդանանց փող., 80 շենք",(Վանաձոր համայնք),37432246664,37491475552,Spyur,,,,,,,,
«ՍՏԵԼՍՏՈՄ» ՍՏՈՄԱՏՈԼՈԳԻԱԿԱՆ ԿԼԻՆԻԿԱ սահմանափակ պատասխանատվությամբ ընկերություն (ՍՊԸ),Հայաստան, Լոռու մարզ, Վանաձոր,"Տիգրան Մեծի պող., 11/11 շենք",(Վանաձոր համայնք),37432240756,37460739225,Spyur,https://www.facebook.com/stelsdentalclinic,,,,,,,
«ՏԱՆԴԵՄ» ԱՏԱՄՆԱԲՈՒԺԱԿԱՆ ԿԼԻՆԻԿԱ (ԱՐՄԵՆ ԱՀԱՐՈՆՅԱՆ անհատ ձեռներեց),Հայաստան, 0010, Երևան,"Հանրապետության փող., 62 շենք, տարածք 106",(Կենտրոն վարչ. շրջան),37410541048,37410581054,Spyur,,,,37491241048,,,,
«ՎՈՎԱԴԵՆՏ» սահմանափակ պատասխանատվությամբ ընկերություն (ՍՊԸ),Հայաստան, Սյունիքի մարզ, Կապան,"Հունան Ավետիսյան փող., 4/1 շենք, բն.1",(Կապան համայնք),37494193384,37477390026,Spyur,,,,,,,,
«ԱԳԱԹ ԴԵՆԹԼ» ՍՏՈՄԱՏՈԼՈԳԻԱԿԱՆ ԿԼԻՆԻԿԱ,Հայաստան, 0019, Երևան,"Մարշալ Բաղրամյան պող., 33ա շենք, բն.29",(Արաբկիր վարչ. շրջան),37410272623,,Spyur,,,,,,,,
«ՌՈԲԻ ԴԵՆՏ» ԱՏԱՄՆԱԲՈՒԺԱԿԱՆ ԿԼԻՆԻԿԱ,Հայաստան, 0014, Երևան,"Մամիկոնյանց փող., 3 շենք",(Արաբկիր վարչ. շրջան),37410230071,37491101074,Spyur,,,,37495741010,,,,
«ԴԵՆՏ-ԷՔՍՊՐԵՍ» ՍՏՈՄԱՏՈԼՈԳԻԱԿԱՆ ԿԼԻՆԻԿԱ սահմանափակ պատասխանատվությամբ ընկերություն (ՍՊԸ),Հայաստան, 0002, Երևան,"Պուշկինի փող., 46 շենք",(Կենտրոն վարչ. շրջան),37410537121,37499537121,Spyur,,,,,,,,
«ՇՈՂԵՐ» ԱՏԱՄՆԱԲՈՒԺԱՐԱՆ,Հայաստան, 0019, Երևան,"Մարշալ Բաղրամյան պող., 45 շենք",(Արաբկիր վարչ. շրջան),37491277716,,Spyur,https://www.facebook.com/Shogher-Dent-101144748198783,,,,,,,
«ՆՅՈՒ ԴԵՆՏ» ԱՏԱՄՆԱԲՈՒԺԱՐԱՆ,Հայաստան, 0025, Երևան,"Չարենցի փող., 27 շենք",(Կենտրոն վարչ. շրջան),37499204104,37410570370,Spyur,https://www.facebook.com/newdentstomotology,,,,,,,
ՎՐԵԺ ԲԱԼԱՅԱՆ անհատ ձեռնարկատեր (ԱՁ),Հայաստան, 0028, Երևան,"Կիևյան փող., 14 շենք",(Արաբկիր վարչ. շրջան),37410273051,,Spyur,,,,,,,,
«ՕՐԹՈԴԵՆՏ» ԱՏԱՄՆԱԲՈՒԺԱՐԱՆ,Հայաստան, 0033, Երևան,"Մարշալ Բաղրամյան պող., 69 շենք",(Արաբկիր վարչ. շրջան),37410265015,,Spyur,https://www.facebook.com/OrthodentDentalClinique,,,,,,,
«ՆԱՌԱ-ԴԵՆՏ» ԱՏԱՄՆԱԲՈՒԺԱՐԱՆ,Հայաստան, 0005, Երևան,"Տիգրան Մեծի պող., 54/1 շենք",(Էրեբունի վարչ. շրջան),37410574454,,Spyur,https://www.facebook.com/naradent,,,,,,,
«ԱԻԴԱ ՍԱՀԱԿՅԱՆ» ԱՏԱՄՆԱԲՈՒԺԱՐԱՆ,ԱՄՆ, Կալիֆոռնիա նահանգ, Լոս Անջելես,"12420 Burbank Blvd., North Hollywood, CA 91607, USA",,,,,,,,,,,,
«ԱԼԵՆՈՒՇ ԲԱՂԴԱՍԱՐՅԱՆ - ԱՏԱՄՆԱԲՈՒՅԺ»,ԱՄՆ, Կալիֆոռնիա նահանգ, Գլենդել (Լոս Անջելես),"457 Palm Dr., Ste 100, Glendale, CA 91202-3221, USA",,,,,,,,,,,,
«ԱՎԱԿԻԱՆ ԱՐԱՔՍԻ - ԱՏԱՄՆԱԲՈՒՅԺ-ՕՐԹՈԴՈՆՏ»,ԱՄՆ, Կալիֆոռնիա նահանգ, Գլենդել (Լոս Անջելես),"1017 N Pacific Ave., Ste A, Glendale, CA 91202, USA",,,,,,,,,,,,
ԱՐՄԻՆԵ ՍԻՆԴՈՅԱՆ անհատ ձեռներեց (ԱՁ),Հայաստան, 0010, Երևան,"Վարդանանց փող. անցուղի, 6 շենք, տարածք 1",(Կենտրոն վարչ. շրջան),,,,,,,,,,,
«ԲԱԲԻԱՆ ՄՀԵՐ» ԱՏԱՄՆԱԲՈՒԺԱՐԱՆ,ԱՄՆ, Կալիֆոռնիա նահանգ, Գլենդել (Լոս Անջելես),"1111 S Glendale Ave., of. 206, Glendale, CA 91205-3268, USA",,,,,,,,,,,,
«ԳԱՐԱՆՏ ԴԻԳՈ ԴԵՆԹ» ՍՏՈՄԱՏՈԼՈԳԻԱԿԱՆ ԿԼԻՆԻԿԱ սահմանափակ պատասխանատվությամբ ընկերություն (ՍՊԸ),Հայաստան, 0038, Երևան,"Շինարարների փող., 11 շենք, սեն.1",(Աջափնյակ վարչ. շրջան),,,Spyur.am/digodent,,,,,,,,
«ԳԼԵՆՈՔՍ» ԱՏԱՄՆԱԲՈՒԺԱԿԱՆ ԿԼԻՆԻԿԱ,ԱՄՆ, Կալիֆոռնիա նահանգ, Գլենդել (Լոս Անջելես),"1128 N Brand Blvd., Glendale, CA 91202, USA",,,,,,,,,,,,
«ԴԵՐԴԵՐՅԱՆ ԱՆՆԱ»,,,,,,,,,,,,,,,,
«ԷԴԻԹ ԳԵՎՈՐԳՅԱՆ - ԱՏԱՄՆԱԲՈՒՅԺ»,ԱՄՆ, Կալիֆոռնիա նահանգ, Գլենդել (Լոս Անջելես),"332 E Glenoaks Blvd., Ste 100, Glendale, CA 91207, USA",,,,,,,,,,,,
«ԷԴՈՒԱՐԴ ԳՈՒԹԳԱՐԹՍ» ԱՏԱՄՆԱԲՈՒԺԱԿԱՆ ԿԵՆՏՐՈՆ,ԱՄՆ, Կալիֆոռնիա նահանգ, Լոս Անջելես,"1510 N Poinsettia Pl, Los Angeles, CA 90046, USA",,,,,,,,,,,,
«ԷՅՉ ԸՆԴ ԷԼ» ԱՏԱՄՆԱՏԵԽՆԻԿԱԿԱՆ ԼԱԲՈՐԱՏՈՐԻԱ,ԱՄՆ, Կալիֆոռնիա նահանգ, Գլենդել (Լոս Անջելես),"4525 San Fernando Rd., Ste E, Glendale, CA 91204, USA",,,,,,,,,,,,
«ԿԱԶԱԶՅԱՆ ՍՈՆԱ ԴԵՆԹԻՍԹՐԻ»,ԱՄՆ, Կալիֆոռնիա նահանգ, Լոս Անջելես,"12520 W Magnolia Blvd., Valley Village, CA 91607, USA",,,,,,,,,,,,
ՀԱՅԿ ԱՎԱՆԵՍՅԱՆ անհատ ձեռներեց (ԱՁ),Հայաստան, Արցախ (Լեռնային Ղարաբաղ), Մարտակերտի շրջան,"Րաֆֆու փող., 2/1 շենք",,,,,,,,,,,,
«ՀԵՔԻԱԹ ԴԵՆՏ»,Հայաստան, 0051, Երևան,"Կոմիտասի պող., 55/3 շենք",(Արաբկիր վարչ. շրջան),,,,,,,,,,,
«ՁԵՌՔ ՁԵՌՔԻ» հասարակական կազմակերպություն (ՀԿ),Հայաստան, Արցախ (Լեռնային Ղարաբաղ), Ստեփանակերտ,"Տիգրան Մեծի փող., 6 շենք",,,,,,,,,,,,
«ՄԻՔՍ ԴԵՆՏ» ՍՏՈՄԱՏՈԼՈԳԻԱԿԱՆ ԿԼԻՆԻԿԱ,Հայաստան, Երևան,,,,,,Spyur.am/mixx_dent,,,,,,,,
«ՍԱՀ» ԱՏԱՄՆԱԲՈՒԺԱՐԱՆ,Հայաստան, 0002, Երևան,"Պուշկինի փող., 62 շենք, №2",(Կենտրոն վարչ. շրջան),,,Spyur.am/sah_dental,,,,,,,,
«ՍԱՊՖԻՐ ԴԵՆՏ» ՍՏՈՄԱՏՈԼՈԳԻԱԿԱՆ ԿԼԻՆԻԿԱ,Հայաստան, 0010, Երևան,"Վարդանանց փող. 2-րդ նրբ., 6 շենք, տարածք 1",(Կենտրոն վարչ. շրջան),,,Spyur.am/sapphiredent,,,,,,,,
«ՍՏՈՄԼԵՆԴ» ԱՏԱՄՆԱԲՈՒԺԱՐԱՆ,Հայաստան, 0025, Երևան,"Կորյունի փող., 7 շենք",(Կենտրոն վարչ. շրջան),,,,,,,,,,,
«ՕԳԱ ԲԱԳ» ՍՏՈՄԱՏՈԼՈԳԻԱԿԱՆ ԿԼԻՆԻԿԱ,Հայաստան, 0002, Երևան,"Մաշտոցի պող., 20 շենք",(Կենտրոն վարչ. շրջան),,,Spyur.am/ogabag,,,,,,,,
